{
  "type": "FeatureCollection",
  "features": [
    {
      "type": "Feature",
      "properties": {
        "area_id": 2,
        "osmid": "2319495197"
      },
      "geometry": {
        "type": "Point",
        "coordinates": [
          6.012917200000001,
          49.4975695
        ]
      }
    },
    {
      "type": "Feature",
      "properties": {
        "area_id": 8,
        "osmid": "4829132841"
      },
      "geometry": {
        "type": "Point",
        "coordinates": [
          5.984577600000001,
          49.480589099999996
        ]
      }
    },
    {
      "type": "Feature",
      "properties": {
        "area_id": 8,
        "osmid": "4829132843"
      },
      "geometry": {
        "type": "Point",
        "coordinates": [
          5.983493300000001,
          49.48046449999999
        ]
      }
    },
    {
      "type": "Feature",
      "properties": {
        "area_id": 142,
        "osmid": "3858636850"
      },
      "geometry": {
        "type": "Point",
        "coordinates": [
          5.980026600000002,
          49.487729899999984
        ]
      }
    },
    {
      "type": "Feature",
      "properties": {
        "area_id": 8,
        "osmid": "4829132858"
      },
      "geometry": {
        "type": "Point",
        "coordinates": [
          5.9829221000000015,
          49.48617569999999
        ]
      }
    },
    {
      "type": "Feature",
      "properties": {
        "area_id": 27,
        "osmid": "7677024318"
      },
      "geometry": {
        "type": "Point",
        "coordinates": [
          6.0035878,
          49.500189
        ]
      }
    },
    {
      "type": "Feature",
      "properties": {
        "area_id": 27,
        "osmid": "7677024328"
      },
      "geometry": {
        "type": "Point",
        "coordinates": [
          6.003840600000001,
          49.5008279
        ]
      }
    },
    {
      "type": "Feature",
      "properties": {
        "area_id": 38,
        "osmid": "288825418"
      },
      "geometry": {
        "type": "Point",
        "coordinates": [
          6.008904600000001,
          49.49160009999999
        ]
      }
    },
    {
      "type": "Feature",
      "properties": {
        "area_id": 38,
        "osmid": "288825419"
      },
      "geometry": {
        "type": "Point",
        "coordinates": [
          6.008850899999999,
          49.4915495
        ]
      }
    },
    {
      "type": "Feature",
      "properties": {
        "area_id": 5,
        "osmid": "726165583"
      },
      "geometry": {
        "type": "Point",
        "coordinates": [
          5.975108699999999,
          49.45586079999999
        ]
      }
    },
    {
      "type": "Feature",
      "properties": {
        "area_id": 3,
        "osmid": "1914462287"
      },
      "geometry": {
        "type": "Point",
        "coordinates": [
          6.012497400000002,
          49.49673549999999
        ]
      }
    },
    {
      "type": "Feature",
      "properties": {
        "area_id": 28,
        "osmid": "2139961431"
      },
      "geometry": {
        "type": "Point",
        "coordinates": [
          6.007883700000002,
          49.493831799999995
        ]
      }
    },
    {
      "type": "Feature",
      "properties": {
        "area_id": 28,
        "osmid": "10072967257"
      },
      "geometry": {
        "type": "Point",
        "coordinates": [
          6.007432700000001,
          49.493090499999994
        ]
      }
    },
    {
      "type": "Feature",
      "properties": {
        "area_id": 104,
        "osmid": "9277638747"
      },
      "geometry": {
        "type": "Point",
        "coordinates": [
          6.008058300000001,
          49.49168319999999
        ]
      }
    },
    {
      "type": "Feature",
      "properties": {
        "area_id": 0,
        "osmid": "289321054"
      },
      "geometry": {
        "type": "Point",
        "coordinates": [
          6.0053965,
          49.50356149999999
        ]
      }
    },
    {
      "type": "Feature",
      "properties": {
        "area_id": 91,
        "osmid": "813496416"
      },
      "geometry": {
        "type": "Point",
        "coordinates": [
          6.000463700000002,
          49.45013319999998
        ]
      }
    },
    {
      "type": "Feature",
      "properties": {
        "area_id": 32,
        "osmid": "7684114529"
      },
      "geometry": {
        "type": "Point",
        "coordinates": [
          6.0162237,
          49.47882679999999
        ]
      }
    },
    {
      "type": "Feature",
      "properties": {
        "area_id": 39,
        "osmid": "288825444"
      },
      "geometry": {
        "type": "Point",
        "coordinates": [
          6.009264000000001,
          49.489767199999996
        ]
      }
    },
    {
      "type": "Feature",
      "properties": {
        "area_id": 81,
        "osmid": "8116635750"
      },
      "geometry": {
        "type": "Point",
        "coordinates": [
          6.0118195,
          49.47970509999999
        ]
      }
    },
    {
      "type": "Feature",
      "properties": {
        "area_id": 12,
        "osmid": "726165607"
      },
      "geometry": {
        "type": "Point",
        "coordinates": [
          5.9764181,
          49.453471
        ]
      }
    },
    {
      "type": "Feature",
      "properties": {
        "area_id": 3,
        "osmid": "1914462311"
      },
      "geometry": {
        "type": "Point",
        "coordinates": [
          6.0110718,
          49.498387799999996
        ]
      }
    },
    {
      "type": "Feature",
      "properties": {
        "area_id": 41,
        "osmid": "288825452"
      },
      "geometry": {
        "type": "Point",
        "coordinates": [
          6.0080101,
          49.49008339999999
        ]
      }
    },
    {
      "type": "Feature",
      "properties": {
        "area_id": 3,
        "osmid": "1295712366"
      },
      "geometry": {
        "type": "Point",
        "coordinates": [
          6.014793100000002,
          49.497158199999994
        ]
      }
    },
    {
      "type": "Feature",
      "properties": {
        "area_id": 43,
        "osmid": "288825459"
      },
      "geometry": {
        "type": "Point",
        "coordinates": [
          6.007236899999999,
          49.4908117
        ]
      }
    },
    {
      "type": "Feature",
      "properties": {
        "area_id": 12,
        "osmid": "726165621"
      },
      "geometry": {
        "type": "Point",
        "coordinates": [
          5.974343000000002,
          49.45043979999999
        ]
      }
    },
    {
      "type": "Feature",
      "properties": {
        "area_id": 1,
        "osmid": "2265806968"
      },
      "geometry": {
        "type": "Point",
        "coordinates": [
          6.027007700000001,
          49.4978271
        ]
      }
    },
    {
      "type": "Feature",
      "properties": {
        "area_id": 5,
        "osmid": "2844186750"
      },
      "geometry": {
        "type": "Point",
        "coordinates": [
          5.9870901,
          49.45700859999999
        ]
      }
    },
    {
      "type": "Feature",
      "properties": {
        "area_id": 44,
        "osmid": "288825477"
      },
      "geometry": {
        "type": "Point",
        "coordinates": [
          6.006671,
          49.489911799999994
        ]
      }
    },
    {
      "type": "Feature",
      "properties": {
        "area_id": 13,
        "osmid": "4829132934"
      },
      "geometry": {
        "type": "Point",
        "coordinates": [
          5.977463500000001,
          49.48079469999998
        ]
      }
    },
    {
      "type": "Feature",
      "properties": {
        "area_id": 43,
        "osmid": "288825486"
      },
      "geometry": {
        "type": "Point",
        "coordinates": [
          6.004838700000001,
          49.49151969999999
        ]
      }
    },
    {
      "type": "Feature",
      "properties": {
        "area_id": 132,
        "osmid": "2696700050"
      },
      "geometry": {
        "type": "Point",
        "coordinates": [
          6.023147100000001,
          49.50154429999999
        ]
      }
    },
    {
      "type": "Feature",
      "properties": {
        "area_id": 24,
        "osmid": "2696700051"
      },
      "geometry": {
        "type": "Point",
        "coordinates": [
          6.023110899999999,
          49.50209029999999
        ]
      }
    },
    {
      "type": "Feature",
      "properties": {
        "area_id": 55,
        "osmid": "493607060"
      },
      "geometry": {
        "type": "Point",
        "coordinates": [
          5.991704200000001,
          49.484096399999984
        ]
      }
    },
    {
      "type": "Feature",
      "properties": {
        "area_id": 3,
        "osmid": "246816921"
      },
      "geometry": {
        "type": "Point",
        "coordinates": [
          6.012797900000001,
          49.49837999999999
        ]
      }
    },
    {
      "type": "Feature",
      "properties": {
        "area_id": 122,
        "osmid": "1915824282"
      },
      "geometry": {
        "type": "Point",
        "coordinates": [
          5.999565800000001,
          49.484953799999985
        ]
      }
    },
    {
      "type": "Feature",
      "properties": {
        "area_id": 87,
        "osmid": "726161580"
      },
      "geometry": {
        "type": "Point",
        "coordinates": [
          5.969926700000002,
          49.46999789999999
        ]
      }
    },
    {
      "type": "Feature",
      "properties": {
        "area_id": 0,
        "osmid": "2448115892"
      },
      "geometry": {
        "type": "Point",
        "coordinates": [
          6.0038178,
          49.499172599999994
        ]
      }
    },
    {
      "type": "Feature",
      "properties": {
        "area_id": 67,
        "osmid": "813490366"
      },
      "geometry": {
        "type": "Point",
        "coordinates": [
          6.004024200000001,
          49.454640999999995
        ]
      }
    },
    {
      "type": "Feature",
      "properties": {
        "area_id": 163,
        "osmid": "4829132991"
      },
      "geometry": {
        "type": "Point",
        "coordinates": [
          5.9753633000000015,
          49.47570809999999
        ]
      }
    },
    {
      "type": "Feature",
      "properties": {
        "area_id": 163,
        "osmid": "4829132993"
      },
      "geometry": {
        "type": "Point",
        "coordinates": [
          5.975336000000001,
          49.47483529999999
        ]
      }
    },
    {
      "type": "Feature",
      "properties": {
        "area_id": 77,
        "osmid": "945418440"
      },
      "geometry": {
        "type": "Point",
        "coordinates": [
          6.001420900000001,
          49.49497209999998
        ]
      }
    },
    {
      "type": "Feature",
      "properties": {
        "area_id": 23,
        "osmid": "270330060"
      },
      "geometry": {
        "type": "Point",
        "coordinates": [
          6.006545600000001,
          49.495796999999996
        ]
      }
    },
    {
      "type": "Feature",
      "properties": {
        "area_id": 23,
        "osmid": "270330066"
      },
      "geometry": {
        "type": "Point",
        "coordinates": [
          6.006389900000001,
          49.495711699999994
        ]
      }
    },
    {
      "type": "Feature",
      "properties": {
        "area_id": 1,
        "osmid": "246816982"
      },
      "geometry": {
        "type": "Point",
        "coordinates": [
          6.0160379000000015,
          49.49297069999999
        ]
      }
    },
    {
      "type": "Feature",
      "properties": {
        "area_id": 5,
        "osmid": "7787976933"
      },
      "geometry": {
        "type": "Point",
        "coordinates": [
          5.9877091,
          49.45936019999999
        ]
      }
    },
    {
      "type": "Feature",
      "properties": {
        "area_id": 115,
        "osmid": "6391216407"
      },
      "geometry": {
        "type": "Point",
        "coordinates": [
          5.9830548,
          49.48804439999999
        ]
      }
    },
    {
      "type": "Feature",
      "properties": {
        "area_id": 97,
        "osmid": "1314025759"
      },
      "geometry": {
        "type": "Point",
        "coordinates": [
          5.982928700000001,
          49.464975899999985
        ]
      }
    },
    {
      "type": "Feature",
      "properties": {
        "area_id": 65,
        "osmid": "1314025772"
      },
      "geometry": {
        "type": "Point",
        "coordinates": [
          5.9875458,
          49.4686913
        ]
      }
    },
    {
      "type": "Feature",
      "properties": {
        "area_id": 2,
        "osmid": "1917466925"
      },
      "geometry": {
        "type": "Point",
        "coordinates": [
          6.0144742,
          49.4942735
        ]
      }
    },
    {
      "type": "Feature",
      "properties": {
        "area_id": 8,
        "osmid": "1633294637"
      },
      "geometry": {
        "type": "Point",
        "coordinates": [
          5.981901500000002,
          49.484298199999984
        ]
      }
    },
    {
      "type": "Feature",
      "properties": {
        "area_id": 2,
        "osmid": "1917466927"
      },
      "geometry": {
        "type": "Point",
        "coordinates": [
          6.0144386,
          49.494401899999986
        ]
      }
    },
    {
      "type": "Feature",
      "properties": {
        "area_id": 8,
        "osmid": "4146405683"
      },
      "geometry": {
        "type": "Point",
        "coordinates": [
          5.986225200000001,
          49.481330799999995
        ]
      }
    },
    {
      "type": "Feature",
      "properties": {
        "area_id": 2,
        "osmid": "1295714617"
      },
      "geometry": {
        "type": "Point",
        "coordinates": [
          6.013236300000001,
          49.49546899999999
        ]
      }
    },
    {
      "type": "Feature",
      "properties": {
        "area_id": 26,
        "osmid": "2709758266"
      },
      "geometry": {
        "type": "Point",
        "coordinates": [
          6.026890800000001,
          49.50291419999998
        ]
      }
    },
    {
      "type": "Feature",
      "properties": {
        "area_id": 4,
        "osmid": "247372094"
      },
      "geometry": {
        "type": "Point",
        "coordinates": [
          6.032780299999999,
          49.50143409999999
        ]
      }
    },
    {
      "type": "Feature",
      "properties": {
        "area_id": 77,
        "osmid": "7707357503"
      },
      "geometry": {
        "type": "Point",
        "coordinates": [
          6.001780600000001,
          49.4944368
        ]
      }
    },
    {
      "type": "Feature",
      "properties": {
        "area_id": 38,
        "osmid": "2687746369"
      },
      "geometry": {
        "type": "Point",
        "coordinates": [
          6.008415199999999,
          49.492137500000005
        ]
      }
    },
    {
      "type": "Feature",
      "properties": {
        "area_id": 104,
        "osmid": "2687746372"
      },
      "geometry": {
        "type": "Point",
        "coordinates": [
          6.008081100000001,
          49.49218759999999
        ]
      }
    },
    {
      "type": "Feature",
      "properties": {
        "area_id": 104,
        "osmid": "1560529221"
      },
      "geometry": {
        "type": "Point",
        "coordinates": [
          6.007534400000002,
          49.492971699999984
        ]
      }
    },
    {
      "type": "Feature",
      "properties": {
        "area_id": 90,
        "osmid": "813490502"
      },
      "geometry": {
        "type": "Point",
        "coordinates": [
          6.0070459000000005,
          49.45829029999999
        ]
      }
    },
    {
      "type": "Feature",
      "properties": {
        "area_id": 88,
        "osmid": "470559044"
      },
      "geometry": {
        "type": "Point",
        "coordinates": [
          5.9971438,
          49.457730399999996
        ]
      }
    },
    {
      "type": "Feature",
      "properties": {
        "area_id": 104,
        "osmid": "2687746382"
      },
      "geometry": {
        "type": "Point",
        "coordinates": [
          6.008232700000001,
          49.491922399999986
        ]
      }
    },
    {
      "type": "Feature",
      "properties": {
        "area_id": 104,
        "osmid": "2687746387"
      },
      "geometry": {
        "type": "Point",
        "coordinates": [
          6.0080208,
          49.4916497
        ]
      }
    },
    {
      "type": "Feature",
      "properties": {
        "area_id": 26,
        "osmid": "2978822490"
      },
      "geometry": {
        "type": "Point",
        "coordinates": [
          6.029776200000001,
          49.502404699999985
        ]
      }
    },
    {
      "type": "Feature",
      "properties": {
        "area_id": 44,
        "osmid": "2709758300"
      },
      "geometry": {
        "type": "Point",
        "coordinates": [
          6.006748100000001,
          49.488103599999995
        ]
      }
    },
    {
      "type": "Feature",
      "properties": {
        "area_id": 32,
        "osmid": "600498527"
      },
      "geometry": {
        "type": "Point",
        "coordinates": [
          6.0062314,
          49.476659899999994
        ]
      }
    },
    {
      "type": "Feature",
      "properties": {
        "area_id": 77,
        "osmid": "1868949857"
      },
      "geometry": {
        "type": "Point",
        "coordinates": [
          6.0048652,
          49.49492979999999
        ]
      }
    },
    {
      "type": "Feature",
      "properties": {
        "area_id": 81,
        "osmid": "600498535"
      },
      "geometry": {
        "type": "Point",
        "coordinates": [
          6.0103007,
          49.479570899999985
        ]
      }
    },
    {
      "type": "Feature",
      "properties": {
        "area_id": 132,
        "osmid": "2265799023"
      },
      "geometry": {
        "type": "Point",
        "coordinates": [
          6.0250396,
          49.50170989999999
        ]
      }
    },
    {
      "type": "Feature",
      "properties": {
        "area_id": 4,
        "osmid": "247372147"
      },
      "geometry": {
        "type": "Point",
        "coordinates": [
          6.0276432,
          49.504487099999984
        ]
      }
    },
    {
      "type": "Feature",
      "properties": {
        "area_id": 74,
        "osmid": "4338192760"
      },
      "geometry": {
        "type": "Point",
        "coordinates": [
          5.996620700000001,
          49.484068799999996
        ]
      }
    },
    {
      "type": "Feature",
      "properties": {
        "area_id": 43,
        "osmid": "4481677702"
      },
      "geometry": {
        "type": "Point",
        "coordinates": [
          6.0047586,
          49.49197379999999
        ]
      }
    },
    {
      "type": "Feature",
      "properties": {
        "area_id": 39,
        "osmid": "2690537866"
      },
      "geometry": {
        "type": "Point",
        "coordinates": [
          6.008382199999999,
          49.4891016
        ]
      }
    },
    {
      "type": "Feature",
      "properties": {
        "area_id": 64,
        "osmid": "2844164507"
      },
      "geometry": {
        "type": "Point",
        "coordinates": [
          5.994025700000002,
          49.46121879999998
        ]
      }
    },
    {
      "type": "Feature",
      "properties": {
        "area_id": 5,
        "osmid": "10039974301"
      },
      "geometry": {
        "type": "Point",
        "coordinates": [
          5.9758262,
          49.449588
        ]
      }
    },
    {
      "type": "Feature",
      "properties": {
        "area_id": 143,
        "osmid": "2844164511"
      },
      "geometry": {
        "type": "Point",
        "coordinates": [
          5.995323200000001,
          49.460939399999994
        ]
      }
    },
    {
      "type": "Feature",
      "properties": {
        "area_id": 32,
        "osmid": "2018402720"
      },
      "geometry": {
        "type": "Point",
        "coordinates": [
          6.0060775,
          49.48310969999999
        ]
      }
    },
    {
      "type": "Feature",
      "properties": {
        "area_id": 143,
        "osmid": "2844164513"
      },
      "geometry": {
        "type": "Point",
        "coordinates": [
          5.9955063,
          49.4606705
        ]
      }
    },
    {
      "type": "Feature",
      "properties": {
        "area_id": 123,
        "osmid": "2709758376"
      },
      "geometry": {
        "type": "Point",
        "coordinates": [
          6.0002542000000005,
          49.487142199999994
        ]
      }
    },
    {
      "type": "Feature",
      "properties": {
        "area_id": 12,
        "osmid": "10039974315"
      },
      "geometry": {
        "type": "Point",
        "coordinates": [
          5.9748365,
          49.451024
        ]
      }
    },
    {
      "type": "Feature",
      "properties": {
        "area_id": 77,
        "osmid": "2687746500"
      },
      "geometry": {
        "type": "Point",
        "coordinates": [
          6.0034911,
          49.493198299999996
        ]
      }
    },
    {
      "type": "Feature",
      "properties": {
        "area_id": 137,
        "osmid": "2709758411"
      },
      "geometry": {
        "type": "Point",
        "coordinates": [
          5.9915283,
          49.48954649999999
        ]
      }
    },
    {
      "type": "Feature",
      "properties": {
        "area_id": 3,
        "osmid": "7677790668"
      },
      "geometry": {
        "type": "Point",
        "coordinates": [
          6.013397300000001,
          49.49946179999999
        ]
      }
    },
    {
      "type": "Feature",
      "properties": {
        "area_id": 41,
        "osmid": "1917479375"
      },
      "geometry": {
        "type": "Point",
        "coordinates": [
          6.007768500000001,
          49.49000089999999
        ]
      }
    },
    {
      "type": "Feature",
      "properties": {
        "area_id": 32,
        "osmid": "2018402771"
      },
      "geometry": {
        "type": "Point",
        "coordinates": [
          6.007605000000001,
          49.47843249999999
        ]
      }
    },
    {
      "type": "Feature",
      "properties": {
        "area_id": 41,
        "osmid": "1917479380"
      },
      "geometry": {
        "type": "Point",
        "coordinates": [
          6.0068225,
          49.4883136
        ]
      }
    },
    {
      "type": "Feature",
      "properties": {
        "area_id": 41,
        "osmid": "1917479381"
      },
      "geometry": {
        "type": "Point",
        "coordinates": [
          6.007561300000001,
          49.489897
        ]
      }
    },
    {
      "type": "Feature",
      "properties": {
        "area_id": 58,
        "osmid": "1606656486"
      },
      "geometry": {
        "type": "Point",
        "coordinates": [
          5.9938876,
          49.47757469999999
        ]
      }
    },
    {
      "type": "Feature",
      "properties": {
        "area_id": 138,
        "osmid": "4828412393"
      },
      "geometry": {
        "type": "Point",
        "coordinates": [
          5.9957253,
          49.485594099999986
        ]
      }
    },
    {
      "type": "Feature",
      "properties": {
        "area_id": 115,
        "osmid": "2709758442"
      },
      "geometry": {
        "type": "Point",
        "coordinates": [
          5.982728100000001,
          49.48773579999998
        ]
      }
    },
    {
      "type": "Feature",
      "properties": {
        "area_id": 26,
        "osmid": "7301738993"
      },
      "geometry": {
        "type": "Point",
        "coordinates": [
          6.0269364,
          49.5028589
        ]
      }
    },
    {
      "type": "Feature",
      "properties": {
        "area_id": 26,
        "osmid": "1295708669"
      },
      "geometry": {
        "type": "Point",
        "coordinates": [
          6.0174767,
          49.49765039999999
        ]
      }
    },
    {
      "type": "Feature",
      "properties": {
        "area_id": 4,
        "osmid": "2658064894"
      },
      "geometry": {
        "type": "Point",
        "coordinates": [
          6.035913700000001,
          49.504826499999986
        ]
      }
    },
    {
      "type": "Feature",
      "properties": {
        "area_id": 112,
        "osmid": "4086635008"
      },
      "geometry": {
        "type": "Point",
        "coordinates": [
          5.9816815000000005,
          49.47248159999999
        ]
      }
    },
    {
      "type": "Feature",
      "properties": {
        "area_id": 26,
        "osmid": "1295708675"
      },
      "geometry": {
        "type": "Point",
        "coordinates": [
          6.0187040000000005,
          49.498776299999996
        ]
      }
    },
    {
      "type": "Feature",
      "properties": {
        "area_id": 142,
        "osmid": "2709758482"
      },
      "geometry": {
        "type": "Point",
        "coordinates": [
          5.980244500000001,
          49.487403199999996
        ]
      }
    },
    {
      "type": "Feature",
      "properties": {
        "area_id": 142,
        "osmid": "2709758484"
      },
      "geometry": {
        "type": "Point",
        "coordinates": [
          5.980218399999999,
          49.48744979999999
        ]
      }
    },
    {
      "type": "Feature",
      "properties": {
        "area_id": 3,
        "osmid": "7677790748"
      },
      "geometry": {
        "type": "Point",
        "coordinates": [
          6.015225200000001,
          49.499460899999995
        ]
      }
    },
    {
      "type": "Feature",
      "properties": {
        "area_id": 3,
        "osmid": "8661412386"
      },
      "geometry": {
        "type": "Point",
        "coordinates": [
          6.013385900000002,
          49.499486199999986
        ]
      }
    },
    {
      "type": "Feature",
      "properties": {
        "area_id": 145,
        "osmid": "2891485825"
      },
      "geometry": {
        "type": "Point",
        "coordinates": [
          5.9661099,
          49.464168
        ]
      }
    },
    {
      "type": "Feature",
      "properties": {
        "area_id": 145,
        "osmid": "2891485827"
      },
      "geometry": {
        "type": "Point",
        "coordinates": [
          5.9688232,
          49.46719069999999
        ]
      }
    },
    {
      "type": "Feature",
      "properties": {
        "area_id": 12,
        "osmid": "813488787"
      },
      "geometry": {
        "type": "Point",
        "coordinates": [
          5.9692126000000005,
          49.459337699999985
        ]
      }
    },
    {
      "type": "Feature",
      "properties": {
        "area_id": 98,
        "osmid": "1593338517"
      },
      "geometry": {
        "type": "Point",
        "coordinates": [
          6.013442100000002,
          49.457635799999984
        ]
      }
    },
    {
      "type": "Feature",
      "properties": {
        "area_id": 145,
        "osmid": "2891485848"
      },
      "geometry": {
        "type": "Point",
        "coordinates": [
          5.968106799999999,
          49.46901739999999
        ]
      }
    },
    {
      "type": "Feature",
      "properties": {
        "area_id": 8,
        "osmid": "4884290202"
      },
      "geometry": {
        "type": "Point",
        "coordinates": [
          5.983674399999999,
          49.48705989999999
        ]
      }
    },
    {
      "type": "Feature",
      "properties": {
        "area_id": 88,
        "osmid": "800008861"
      },
      "geometry": {
        "type": "Point",
        "coordinates": [
          5.992913200000002,
          49.457381999999996
        ]
      }
    },
    {
      "type": "Feature",
      "properties": {
        "area_id": 90,
        "osmid": "813486781"
      },
      "geometry": {
        "type": "Point",
        "coordinates": [
          6.006724600000001,
          49.4588408
        ]
      }
    },
    {
      "type": "Feature",
      "properties": {
        "area_id": 41,
        "osmid": "10090404549"
      },
      "geometry": {
        "type": "Point",
        "coordinates": [
          6.008100400000001,
          49.48905679999999
        ]
      }
    },
    {
      "type": "Feature",
      "properties": {
        "area_id": 26,
        "osmid": "10739321542"
      },
      "geometry": {
        "type": "Point",
        "coordinates": [
          6.027098900000001,
          49.50254429999999
        ]
      }
    },
    {
      "type": "Feature",
      "properties": {
        "area_id": 122,
        "osmid": "2399390414"
      },
      "geometry": {
        "type": "Point",
        "coordinates": [
          5.998826200000001,
          49.484065499999986
        ]
      }
    },
    {
      "type": "Feature",
      "properties": {
        "area_id": 38,
        "osmid": "493613821"
      },
      "geometry": {
        "type": "Point",
        "coordinates": [
          6.008509600000001,
          49.49222309999998
        ]
      }
    },
    {
      "type": "Feature",
      "properties": {
        "area_id": 64,
        "osmid": "2844171006"
      },
      "geometry": {
        "type": "Point",
        "coordinates": [
          5.9877413000000015,
          49.46225519999998
        ]
      }
    },
    {
      "type": "Feature",
      "properties": {
        "area_id": 77,
        "osmid": "2701193986"
      },
      "geometry": {
        "type": "Point",
        "coordinates": [
          6.0045135,
          49.49276689999999
        ]
      }
    },
    {
      "type": "Feature",
      "properties": {
        "area_id": 5,
        "osmid": "2891535126"
      },
      "geometry": {
        "type": "Point",
        "coordinates": [
          5.9832692,
          49.4584857
        ]
      }
    },
    {
      "type": "Feature",
      "properties": {
        "area_id": 55,
        "osmid": "1606658845"
      },
      "geometry": {
        "type": "Point",
        "coordinates": [
          5.991621800000001,
          49.4894034
        ]
      }
    },
    {
      "type": "Feature",
      "properties": {
        "area_id": 74,
        "osmid": "470567714"
      },
      "geometry": {
        "type": "Point",
        "coordinates": [
          5.998009400000001,
          49.4859953
        ]
      }
    },
    {
      "type": "Feature",
      "properties": {
        "area_id": 7,
        "osmid": "6392064804"
      },
      "geometry": {
        "type": "Point",
        "coordinates": [
          5.9871794,
          49.48932549999999
        ]
      }
    },
    {
      "type": "Feature",
      "properties": {
        "area_id": 41,
        "osmid": "1915116324"
      },
      "geometry": {
        "type": "Point",
        "coordinates": [
          6.008149200000002,
          49.4894959
        ]
      }
    },
    {
      "type": "Feature",
      "properties": {
        "area_id": 7,
        "osmid": "6392064805"
      },
      "geometry": {
        "type": "Point",
        "coordinates": [
          5.9856853999999995,
          49.48844299999999
        ]
      }
    },
    {
      "type": "Feature",
      "properties": {
        "area_id": 41,
        "osmid": "1915116327"
      },
      "geometry": {
        "type": "Point",
        "coordinates": [
          6.007932200000001,
          49.489477999999984
        ]
      }
    },
    {
      "type": "Feature",
      "properties": {
        "area_id": 26,
        "osmid": "7677791019"
      },
      "geometry": {
        "type": "Point",
        "coordinates": [
          6.025168,
          49.50162809999999
        ]
      }
    },
    {
      "type": "Feature",
      "properties": {
        "area_id": 5,
        "osmid": "6270206786"
      },
      "geometry": {
        "type": "Point",
        "coordinates": [
          5.975889300000001,
          49.4522786
        ]
      }
    },
    {
      "type": "Feature",
      "properties": {
        "area_id": 5,
        "osmid": "6270206791"
      },
      "geometry": {
        "type": "Point",
        "coordinates": [
          5.980624700000001,
          49.460055499999996
        ]
      }
    },
    {
      "type": "Feature",
      "properties": {
        "area_id": 163,
        "osmid": "5866208072"
      },
      "geometry": {
        "type": "Point",
        "coordinates": [
          5.974558900000001,
          49.4750184
        ]
      }
    },
    {
      "type": "Feature",
      "properties": {
        "area_id": 98,
        "osmid": "8933233486"
      },
      "geometry": {
        "type": "Point",
        "coordinates": [
          6.013987200000001,
          49.457766499999984
        ]
      }
    },
    {
      "type": "Feature",
      "properties": {
        "area_id": 13,
        "osmid": "5866208087"
      },
      "geometry": {
        "type": "Point",
        "coordinates": [
          5.974403999999999,
          49.475566099999995
        ]
      }
    },
    {
      "type": "Feature",
      "properties": {
        "area_id": 150,
        "osmid": "3554392921"
      },
      "geometry": {
        "type": "Point",
        "coordinates": [
          5.9794412,
          49.4792424
        ]
      }
    },
    {
      "type": "Feature",
      "properties": {
        "area_id": 55,
        "osmid": "331408225"
      },
      "geometry": {
        "type": "Point",
        "coordinates": [
          5.993054100000001,
          49.48859539999998
        ]
      }
    },
    {
      "type": "Feature",
      "properties": {
        "area_id": 132,
        "osmid": "2319485795"
      },
      "geometry": {
        "type": "Point",
        "coordinates": [
          6.023474600000002,
          49.501355599999975
        ]
      }
    },
    {
      "type": "Feature",
      "properties": {
        "area_id": 132,
        "osmid": "2265820004"
      },
      "geometry": {
        "type": "Point",
        "coordinates": [
          6.023163200000002,
          49.50141799999999
        ]
      }
    },
    {
      "type": "Feature",
      "properties": {
        "area_id": 76,
        "osmid": "3304397683"
      },
      "geometry": {
        "type": "Point",
        "coordinates": [
          5.991281100000001,
          49.48517269999999
        ]
      }
    },
    {
      "type": "Feature",
      "properties": {
        "area_id": 56,
        "osmid": "331408244"
      },
      "geometry": {
        "type": "Point",
        "coordinates": [
          5.985635700000001,
          49.48807269999999
        ]
      }
    },
    {
      "type": "Feature",
      "properties": {
        "area_id": 125,
        "osmid": "3089341314"
      },
      "geometry": {
        "type": "Point",
        "coordinates": [
          5.994867900000003,
          49.482808699999985
        ]
      }
    },
    {
      "type": "Feature",
      "properties": {
        "area_id": 24,
        "osmid": "273079174"
      },
      "geometry": {
        "type": "Point",
        "coordinates": [
          6.025606700000001,
          49.50210429999998
        ]
      }
    },
    {
      "type": "Feature",
      "properties": {
        "area_id": 96,
        "osmid": "3686153098"
      },
      "geometry": {
        "type": "Point",
        "coordinates": [
          5.9840049,
          49.44813249999999
        ]
      }
    },
    {
      "type": "Feature",
      "properties": {
        "area_id": 64,
        "osmid": "2863776651"
      },
      "geometry": {
        "type": "Point",
        "coordinates": [
          5.993430200000002,
          49.461471999999986
        ]
      }
    },
    {
      "type": "Feature",
      "properties": {
        "area_id": 47,
        "osmid": "470567821"
      },
      "geometry": {
        "type": "Point",
        "coordinates": [
          6.000566300000001,
          49.48753299999999
        ]
      }
    },
    {
      "type": "Feature",
      "properties": {
        "area_id": 8,
        "osmid": "2929554329"
      },
      "geometry": {
        "type": "Point",
        "coordinates": [
          5.9829931,
          49.48366119999999
        ]
      }
    },
    {
      "type": "Feature",
      "properties": {
        "area_id": 26,
        "osmid": "273079196"
      },
      "geometry": {
        "type": "Point",
        "coordinates": [
          6.0207854,
          49.49915999999999
        ]
      }
    },
    {
      "type": "Feature",
      "properties": {
        "area_id": 35,
        "osmid": "3492739998"
      },
      "geometry": {
        "type": "Point",
        "coordinates": [
          5.986846800000001,
          49.4712293
        ]
      }
    },
    {
      "type": "Feature",
      "properties": {
        "area_id": 35,
        "osmid": "3492739999"
      },
      "geometry": {
        "type": "Point",
        "coordinates": [
          5.9879624,
          49.470689699999994
        ]
      }
    },
    {
      "type": "Feature",
      "properties": {
        "area_id": 3,
        "osmid": "2698587044"
      },
      "geometry": {
        "type": "Point",
        "coordinates": [
          6.015312400000002,
          49.49703339999999
        ]
      }
    },
    {
      "type": "Feature",
      "properties": {
        "area_id": 57,
        "osmid": "331408294"
      },
      "geometry": {
        "type": "Point",
        "coordinates": [
          5.9869400000000015,
          49.47839149999999
        ]
      }
    },
    {
      "type": "Feature",
      "properties": {
        "area_id": 87,
        "osmid": "8944571309"
      },
      "geometry": {
        "type": "Point",
        "coordinates": [
          5.9702139999999995,
          49.47021729999999
        ]
      }
    },
    {
      "type": "Feature",
      "properties": {
        "area_id": 3,
        "osmid": "2698587056"
      },
      "geometry": {
        "type": "Point",
        "coordinates": [
          6.017169900000002,
          49.49812279999999
        ]
      }
    },
    {
      "type": "Feature",
      "properties": {
        "area_id": 58,
        "osmid": "331408310"
      },
      "geometry": {
        "type": "Point",
        "coordinates": [
          5.9939242,
          49.47752029999999
        ]
      }
    },
    {
      "type": "Feature",
      "properties": {
        "area_id": 157,
        "osmid": "2863809464"
      },
      "geometry": {
        "type": "Point",
        "coordinates": [
          5.988315900000002,
          49.46705029999998
        ]
      }
    },
    {
      "type": "Feature",
      "properties": {
        "area_id": 3,
        "osmid": "2698587065"
      },
      "geometry": {
        "type": "Point",
        "coordinates": [
          6.0175923,
          49.4985054
        ]
      }
    },
    {
      "type": "Feature",
      "properties": {
        "area_id": 3,
        "osmid": "2698587070"
      },
      "geometry": {
        "type": "Point",
        "coordinates": [
          6.017069200000001,
          49.49895619999999
        ]
      }
    },
    {
      "type": "Feature",
      "properties": {
        "area_id": 113,
        "osmid": "3554401215"
      },
      "geometry": {
        "type": "Point",
        "coordinates": [
          5.9833243,
          49.49151209999999
        ]
      }
    },
    {
      "type": "Feature",
      "properties": {
        "area_id": 8,
        "osmid": "1633921985"
      },
      "geometry": {
        "type": "Point",
        "coordinates": [
          5.9847592999999994,
          49.4806309
        ]
      }
    },
    {
      "type": "Feature",
      "properties": {
        "area_id": 68,
        "osmid": "2844144581"
      },
      "geometry": {
        "type": "Point",
        "coordinates": [
          6.004403800000001,
          49.47193429999999
        ]
      }
    },
    {
      "type": "Feature",
      "properties": {
        "area_id": 74,
        "osmid": "470567893"
      },
      "geometry": {
        "type": "Point",
        "coordinates": [
          5.9968353,
          49.4863264
        ]
      }
    },
    {
      "type": "Feature",
      "properties": {
        "area_id": 44,
        "osmid": "331408343"
      },
      "geometry": {
        "type": "Point",
        "coordinates": [
          6.006632400000001,
          49.487444599999996
        ]
      }
    },
    {
      "type": "Feature",
      "properties": {
        "area_id": 72,
        "osmid": "470559706"
      },
      "geometry": {
        "type": "Point",
        "coordinates": [
          6.0019137,
          49.45913319999999
        ]
      }
    },
    {
      "type": "Feature",
      "properties": {
        "area_id": 0,
        "osmid": "2751552475"
      },
      "geometry": {
        "type": "Point",
        "coordinates": [
          6.003975800000002,
          49.49938779999998
        ]
      }
    },
    {
      "type": "Feature",
      "properties": {
        "area_id": 57,
        "osmid": "3554452463"
      },
      "geometry": {
        "type": "Point",
        "coordinates": [
          5.985464800000001,
          49.47885339999999
        ]
      }
    },
    {
      "type": "Feature",
      "properties": {
        "area_id": 153,
        "osmid": "8714345455"
      },
      "geometry": {
        "type": "Point",
        "coordinates": [
          5.961038500000003,
          49.50517819999999
        ]
      }
    },
    {
      "type": "Feature",
      "properties": {
        "area_id": 0,
        "osmid": "331408375"
      },
      "geometry": {
        "type": "Point",
        "coordinates": [
          6.0032714,
          49.49671859999999
        ]
      }
    },
    {
      "type": "Feature",
      "properties": {
        "area_id": 41,
        "osmid": "3210679289"
      },
      "geometry": {
        "type": "Point",
        "coordinates": [
          6.0079162,
          49.489369499999995
        ]
      }
    },
    {
      "type": "Feature",
      "properties": {
        "area_id": 125,
        "osmid": "1917498368"
      },
      "geometry": {
        "type": "Point",
        "coordinates": [
          5.9944148,
          49.482467199999995
        ]
      }
    },
    {
      "type": "Feature",
      "properties": {
        "area_id": 32,
        "osmid": "10302454789"
      },
      "geometry": {
        "type": "Point",
        "coordinates": [
          6.006305500000001,
          49.47668389999999
        ]
      }
    },
    {
      "type": "Feature",
      "properties": {
        "area_id": 32,
        "osmid": "10302454790"
      },
      "geometry": {
        "type": "Point",
        "coordinates": [
          6.006667500000002,
          49.47627429999998
        ]
      }
    },
    {
      "type": "Feature",
      "properties": {
        "area_id": 32,
        "osmid": "10302454791"
      },
      "geometry": {
        "type": "Point",
        "coordinates": [
          6.0063441,
          49.47675069999998
        ]
      }
    },
    {
      "type": "Feature",
      "properties": {
        "area_id": 8,
        "osmid": "2165560329"
      },
      "geometry": {
        "type": "Point",
        "coordinates": [
          5.9860226,
          49.4811833
        ]
      }
    },
    {
      "type": "Feature",
      "properties": {
        "area_id": 90,
        "osmid": "4855634954"
      },
      "geometry": {
        "type": "Point",
        "coordinates": [
          6.006585000000001,
          49.4595313
        ]
      }
    },
    {
      "type": "Feature",
      "properties": {
        "area_id": 13,
        "osmid": "2002791439"
      },
      "geometry": {
        "type": "Point",
        "coordinates": [
          5.977388600000001,
          49.48291239999999
        ]
      }
    },
    {
      "type": "Feature",
      "properties": {
        "area_id": 49,
        "osmid": "776436754"
      },
      "geometry": {
        "type": "Point",
        "coordinates": [
          6.0435055,
          49.5026373
        ]
      }
    },
    {
      "type": "Feature",
      "properties": {
        "area_id": 8,
        "osmid": "2165560339"
      },
      "geometry": {
        "type": "Point",
        "coordinates": [
          5.986675100000001,
          49.48159019999999
        ]
      }
    },
    {
      "type": "Feature",
      "properties": {
        "area_id": 65,
        "osmid": "8121418772"
      },
      "geometry": {
        "type": "Point",
        "coordinates": [
          5.9877441,
          49.4687896
        ]
      }
    },
    {
      "type": "Feature",
      "properties": {
        "area_id": 60,
        "osmid": "335889429"
      },
      "geometry": {
        "type": "Point",
        "coordinates": [
          6.003429700000001,
          49.4868673
        ]
      }
    },
    {
      "type": "Feature",
      "properties": {
        "area_id": 97,
        "osmid": "8121418774"
      },
      "geometry": {
        "type": "Point",
        "coordinates": [
          5.983505000000001,
          49.467178699999984
        ]
      }
    },
    {
      "type": "Feature",
      "properties": {
        "area_id": 0,
        "osmid": "288822295"
      },
      "geometry": {
        "type": "Point",
        "coordinates": [
          6.003978500000002,
          49.49930649999999
        ]
      }
    },
    {
      "type": "Feature",
      "properties": {
        "area_id": 157,
        "osmid": "4354085917"
      },
      "geometry": {
        "type": "Point",
        "coordinates": [
          5.990481800000001,
          49.46530109999999
        ]
      }
    },
    {
      "type": "Feature",
      "properties": {
        "area_id": 26,
        "osmid": "7294645278"
      },
      "geometry": {
        "type": "Point",
        "coordinates": [
          6.0170867,
          49.49772149999999
        ]
      }
    },
    {
      "type": "Feature",
      "properties": {
        "area_id": 0,
        "osmid": "288822307"
      },
      "geometry": {
        "type": "Point",
        "coordinates": [
          6.0031908,
          49.4977337
        ]
      }
    },
    {
      "type": "Feature",
      "properties": {
        "area_id": 5,
        "osmid": "2891537445"
      },
      "geometry": {
        "type": "Point",
        "coordinates": [
          5.976556200000002,
          49.45420559999999
        ]
      }
    },
    {
      "type": "Feature",
      "properties": {
        "area_id": 62,
        "osmid": "412445744"
      },
      "geometry": {
        "type": "Point",
        "coordinates": [
          5.9821271000000005,
          49.470671499999995
        ]
      }
    },
    {
      "type": "Feature",
      "properties": {
        "area_id": 62,
        "osmid": "412445745"
      },
      "geometry": {
        "type": "Point",
        "coordinates": [
          5.982163,
          49.469689299999985
        ]
      }
    },
    {
      "type": "Feature",
      "properties": {
        "area_id": 35,
        "osmid": "279379001"
      },
      "geometry": {
        "type": "Point",
        "coordinates": [
          5.9922588,
          49.47469859999999
        ]
      }
    },
    {
      "type": "Feature",
      "properties": {
        "area_id": 43,
        "osmid": "1163693116"
      },
      "geometry": {
        "type": "Point",
        "coordinates": [
          6.005951500000001,
          49.49113400000001
        ]
      }
    },
    {
      "type": "Feature",
      "properties": {
        "area_id": 38,
        "osmid": "493614145"
      },
      "geometry": {
        "type": "Point",
        "coordinates": [
          6.008382900000002,
          49.49207829999999
        ]
      }
    },
    {
      "type": "Feature",
      "properties": {
        "area_id": 60,
        "osmid": "333560898"
      },
      "geometry": {
        "type": "Point",
        "coordinates": [
          6.003668300000001,
          49.49203729999999
        ]
      }
    },
    {
      "type": "Feature",
      "properties": {
        "area_id": 104,
        "osmid": "7872552008"
      },
      "geometry": {
        "type": "Point",
        "coordinates": [
          6.005012000000001,
          49.49247289999999
        ]
      }
    },
    {
      "type": "Feature",
      "properties": {
        "area_id": 63,
        "osmid": "412445770"
      },
      "geometry": {
        "type": "Point",
        "coordinates": [
          5.997259800000002,
          49.46309149999999
        ]
      }
    },
    {
      "type": "Feature",
      "properties": {
        "area_id": 64,
        "osmid": "412445775"
      },
      "geometry": {
        "type": "Point",
        "coordinates": [
          5.991161800000002,
          49.458512599999985
        ]
      }
    },
    {
      "type": "Feature",
      "properties": {
        "area_id": 41,
        "osmid": "1163693139"
      },
      "geometry": {
        "type": "Point",
        "coordinates": [
          6.008230700000001,
          49.48899829999999
        ]
      }
    },
    {
      "type": "Feature",
      "properties": {
        "area_id": 159,
        "osmid": "4571472980"
      },
      "geometry": {
        "type": "Point",
        "coordinates": [
          5.9773816,
          49.4984205
        ]
      }
    },
    {
      "type": "Feature",
      "properties": {
        "area_id": 77,
        "osmid": "493610068"
      },
      "geometry": {
        "type": "Point",
        "coordinates": [
          6.0030407,
          49.496079
        ]
      }
    },
    {
      "type": "Feature",
      "properties": {
        "area_id": 65,
        "osmid": "412445798"
      },
      "geometry": {
        "type": "Point",
        "coordinates": [
          5.9880182,
          49.46747909999999
        ]
      }
    },
    {
      "type": "Feature",
      "properties": {
        "area_id": 76,
        "osmid": "4828433514"
      },
      "geometry": {
        "type": "Point",
        "coordinates": [
          5.9897442000000005,
          49.48670009999999
        ]
      }
    },
    {
      "type": "Feature",
      "properties": {
        "area_id": 113,
        "osmid": "1633922162"
      },
      "geometry": {
        "type": "Point",
        "coordinates": [
          5.978576500000001,
          49.48195439999999
        ]
      }
    },
    {
      "type": "Feature",
      "properties": {
        "area_id": 13,
        "osmid": "2002789513"
      },
      "geometry": {
        "type": "Point",
        "coordinates": [
          5.977509300000001,
          49.48079559999999
        ]
      }
    },
    {
      "type": "Feature",
      "properties": {
        "area_id": 72,
        "osmid": "3423349900"
      },
      "geometry": {
        "type": "Point",
        "coordinates": [
          6.0099231,
          49.463582699999996
        ]
      }
    },
    {
      "type": "Feature",
      "properties": {
        "area_id": 145,
        "osmid": "4291204246"
      },
      "geometry": {
        "type": "Point",
        "coordinates": [
          5.961617200000001,
          49.465662800000004
        ]
      }
    },
    {
      "type": "Feature",
      "properties": {
        "area_id": 77,
        "osmid": "2448080026"
      },
      "geometry": {
        "type": "Point",
        "coordinates": [
          6.0019804,
          49.494390100000004
        ]
      }
    },
    {
      "type": "Feature",
      "properties": {
        "area_id": 5,
        "osmid": "412445855"
      },
      "geometry": {
        "type": "Point",
        "coordinates": [
          5.9759416,
          49.4627638
        ]
      }
    },
    {
      "type": "Feature",
      "properties": {
        "area_id": 45,
        "osmid": "288828583"
      },
      "geometry": {
        "type": "Point",
        "coordinates": [
          6.0068151000000025,
          49.501601699999995
        ]
      }
    },
    {
      "type": "Feature",
      "properties": {
        "area_id": 13,
        "osmid": "412445867"
      },
      "geometry": {
        "type": "Point",
        "coordinates": [
          5.968103,
          49.46971739999999
        ]
      }
    },
    {
      "type": "Feature",
      "properties": {
        "area_id": 13,
        "osmid": "412445897"
      },
      "geometry": {
        "type": "Point",
        "coordinates": [
          5.968408600000002,
          49.469511499999996
        ]
      }
    },
    {
      "type": "Feature",
      "properties": {
        "area_id": 175,
        "osmid": "6872308938"
      },
      "geometry": {
        "type": "Point",
        "coordinates": [
          5.975854900000002,
          49.480470699999984
        ]
      }
    },
    {
      "type": "Feature",
      "properties": {
        "area_id": 130,
        "osmid": "4878556366"
      },
      "geometry": {
        "type": "Point",
        "coordinates": [
          5.990880100000001,
          49.47881589999999
        ]
      }
    },
    {
      "type": "Feature",
      "properties": {
        "area_id": 3,
        "osmid": "2980869341"
      },
      "geometry": {
        "type": "Point",
        "coordinates": [
          6.012837700000002,
          49.49807319999999
        ]
      }
    },
    {
      "type": "Feature",
      "properties": {
        "area_id": 3,
        "osmid": "2980869352"
      },
      "geometry": {
        "type": "Point",
        "coordinates": [
          6.0140665,
          49.49985409999999
        ]
      }
    },
    {
      "type": "Feature",
      "properties": {
        "area_id": 87,
        "osmid": "3353099502"
      },
      "geometry": {
        "type": "Point",
        "coordinates": [
          5.9696853,
          49.46890929999998
        ]
      }
    },
    {
      "type": "Feature",
      "properties": {
        "area_id": 87,
        "osmid": "3353099511"
      },
      "geometry": {
        "type": "Point",
        "coordinates": [
          5.968027700000001,
          49.4682989
        ]
      }
    },
    {
      "type": "Feature",
      "properties": {
        "area_id": 23,
        "osmid": "270257401"
      },
      "geometry": {
        "type": "Point",
        "coordinates": [
          6.005337199999998,
          49.4962338
        ]
      }
    },
    {
      "type": "Feature",
      "properties": {
        "area_id": 2,
        "osmid": "1917385998"
      },
      "geometry": {
        "type": "Point",
        "coordinates": [
          6.015631600000001,
          49.49632519999998
        ]
      }
    },
    {
      "type": "Feature",
      "properties": {
        "area_id": 72,
        "osmid": "470562065"
      },
      "geometry": {
        "type": "Point",
        "coordinates": [
          6.000556200000002,
          49.46181799999999
        ]
      }
    },
    {
      "type": "Feature",
      "properties": {
        "area_id": 32,
        "osmid": "279381272"
      },
      "geometry": {
        "type": "Point",
        "coordinates": [
          6.006603599999999,
          49.476263599999996
        ]
      }
    },
    {
      "type": "Feature",
      "properties": {
        "area_id": 137,
        "osmid": "7674762522"
      },
      "geometry": {
        "type": "Point",
        "coordinates": [
          5.991820200000001,
          49.49310899999999
        ]
      }
    },
    {
      "type": "Feature",
      "properties": {
        "area_id": 57,
        "osmid": "863173915"
      },
      "geometry": {
        "type": "Point",
        "coordinates": [
          5.9858388000000025,
          49.48104409999999
        ]
      }
    },
    {
      "type": "Feature",
      "properties": {
        "area_id": 57,
        "osmid": "863173925"
      },
      "geometry": {
        "type": "Point",
        "coordinates": [
          5.985861700000001,
          49.479194899999996
        ]
      }
    },
    {
      "type": "Feature",
      "properties": {
        "area_id": 95,
        "osmid": "9482024242"
      },
      "geometry": {
        "type": "Point",
        "coordinates": [
          5.975361500000001,
          49.48922199999999
        ]
      }
    },
    {
      "type": "Feature",
      "properties": {
        "area_id": 3,
        "osmid": "270257461"
      },
      "geometry": {
        "type": "Point",
        "coordinates": [
          6.014429500000002,
          49.500565699999996
        ]
      }
    },
    {
      "type": "Feature",
      "properties": {
        "area_id": 41,
        "osmid": "1828506940"
      },
      "geometry": {
        "type": "Point",
        "coordinates": [
          6.007962700000002,
          49.489190799999996
        ]
      }
    },
    {
      "type": "Feature",
      "properties": {
        "area_id": 41,
        "osmid": "1828506944"
      },
      "geometry": {
        "type": "Point",
        "coordinates": [
          6.0076332,
          49.48982859999999
        ]
      }
    },
    {
      "type": "Feature",
      "properties": {
        "area_id": 77,
        "osmid": "4298325321"
      },
      "geometry": {
        "type": "Point",
        "coordinates": [
          6.003712200000001,
          49.49576219999999
        ]
      }
    },
    {
      "type": "Feature",
      "properties": {
        "area_id": 41,
        "osmid": "1828506957"
      },
      "geometry": {
        "type": "Point",
        "coordinates": [
          6.0079225,
          49.4891366
        ]
      }
    },
    {
      "type": "Feature",
      "properties": {
        "area_id": 55,
        "osmid": "3509851478"
      },
      "geometry": {
        "type": "Point",
        "coordinates": [
          5.9895551000000005,
          49.487874099999985
        ]
      }
    },
    {
      "type": "Feature",
      "properties": {
        "area_id": 170,
        "osmid": "9482024281"
      },
      "geometry": {
        "type": "Point",
        "coordinates": [
          5.979989400000001,
          49.490409499999984
        ]
      }
    },
    {
      "type": "Feature",
      "properties": {
        "area_id": 45,
        "osmid": "288828764"
      },
      "geometry": {
        "type": "Point",
        "coordinates": [
          6.0071511,
          49.500759299999984
        ]
      }
    },
    {
      "type": "Feature",
      "properties": {
        "area_id": 2,
        "osmid": "1914451295"
      },
      "geometry": {
        "type": "Point",
        "coordinates": [
          6.013332900000001,
          49.49543759999999
        ]
      }
    },
    {
      "type": "Feature",
      "properties": {
        "area_id": 63,
        "osmid": "1319918964"
      },
      "geometry": {
        "type": "Point",
        "coordinates": [
          5.9967741,
          49.463689099999996
        ]
      }
    },
    {
      "type": "Feature",
      "properties": {
        "area_id": 63,
        "osmid": "1319918968"
      },
      "geometry": {
        "type": "Point",
        "coordinates": [
          5.9954339,
          49.463544299999995
        ]
      }
    },
    {
      "type": "Feature",
      "properties": {
        "area_id": 7,
        "osmid": "1606643069"
      },
      "geometry": {
        "type": "Point",
        "coordinates": [
          5.9875522000000005,
          49.489061
        ]
      }
    },
    {
      "type": "Feature",
      "properties": {
        "area_id": 7,
        "osmid": "1606643076"
      },
      "geometry": {
        "type": "Point",
        "coordinates": [
          5.988240300000001,
          49.488067699999995
        ]
      }
    },
    {
      "type": "Feature",
      "properties": {
        "area_id": 67,
        "osmid": "813493644"
      },
      "geometry": {
        "type": "Point",
        "coordinates": [
          6.0017627,
          49.4516667
        ]
      }
    },
    {
      "type": "Feature",
      "properties": {
        "area_id": 142,
        "osmid": "3304361357"
      },
      "geometry": {
        "type": "Point",
        "coordinates": [
          5.980064800000001,
          49.4878227
        ]
      }
    },
    {
      "type": "Feature",
      "properties": {
        "area_id": 5,
        "osmid": "1319918990"
      },
      "geometry": {
        "type": "Point",
        "coordinates": [
          5.987362099999999,
          49.456702899999996
        ]
      }
    },
    {
      "type": "Feature",
      "properties": {
        "area_id": 172,
        "osmid": "6514795925"
      },
      "geometry": {
        "type": "Point",
        "coordinates": [
          5.981248300000002,
          49.4850919
        ]
      }
    },
    {
      "type": "Feature",
      "properties": {
        "area_id": 41,
        "osmid": "1915106736"
      },
      "geometry": {
        "type": "Point",
        "coordinates": [
          6.0074698,
          49.490011599999995
        ]
      }
    },
    {
      "type": "Feature",
      "properties": {
        "area_id": 55,
        "osmid": "2756079026"
      },
      "geometry": {
        "type": "Point",
        "coordinates": [
          5.992900500000002,
          49.48865289999999
        ]
      }
    },
    {
      "type": "Feature",
      "properties": {
        "area_id": 137,
        "osmid": "2685492667"
      },
      "geometry": {
        "type": "Point",
        "coordinates": [
          5.991755500000001,
          49.49332219999999
        ]
      }
    },
    {
      "type": "Feature",
      "properties": {
        "area_id": 0,
        "osmid": "1828494786"
      },
      "geometry": {
        "type": "Point",
        "coordinates": [
          6.003640100000002,
          49.496520799999985
        ]
      }
    },
    {
      "type": "Feature",
      "properties": {
        "area_id": 138,
        "osmid": "4287520195"
      },
      "geometry": {
        "type": "Point",
        "coordinates": [
          5.995838700000001,
          49.485258099999996
        ]
      }
    },
    {
      "type": "Feature",
      "properties": {
        "area_id": 0,
        "osmid": "1828494798"
      },
      "geometry": {
        "type": "Point",
        "coordinates": [
          6.004525900000002,
          49.49887429999999
        ]
      }
    },
    {
      "type": "Feature",
      "properties": {
        "area_id": 98,
        "osmid": "4304123344"
      },
      "geometry": {
        "type": "Point",
        "coordinates": [
          6.014443300000001,
          49.45773419999999
        ]
      }
    },
    {
      "type": "Feature",
      "properties": {
        "area_id": 112,
        "osmid": "7233983960"
      },
      "geometry": {
        "type": "Point",
        "coordinates": [
          5.9821676,
          49.4736685
        ]
      }
    },
    {
      "type": "Feature",
      "properties": {
        "area_id": 87,
        "osmid": "2817619423"
      },
      "geometry": {
        "type": "Point",
        "coordinates": [
          5.9691973,
          49.466846199999985
        ]
      }
    },
    {
      "type": "Feature",
      "properties": {
        "area_id": 58,
        "osmid": "1606653423"
      },
      "geometry": {
        "type": "Point",
        "coordinates": [
          5.991631100000001,
          49.4765782
        ]
      }
    },
    {
      "type": "Feature",
      "properties": {
        "area_id": 167,
        "osmid": "4855729651"
      },
      "geometry": {
        "type": "Point",
        "coordinates": [
          6.0166184000000005,
          49.457852399999986
        ]
      }
    },
    {
      "type": "Feature",
      "properties": {
        "area_id": 4,
        "osmid": "247371257"
      },
      "geometry": {
        "type": "Point",
        "coordinates": [
          6.031636300000001,
          49.50072119999999
        ]
      }
    },
    {
      "type": "Feature",
      "properties": {
        "area_id": 41,
        "osmid": "4438410757"
      },
      "geometry": {
        "type": "Point",
        "coordinates": [
          6.007385000000002,
          49.48942139999998
        ]
      }
    },
    {
      "type": "Feature",
      "properties": {
        "area_id": 104,
        "osmid": "4438410772"
      },
      "geometry": {
        "type": "Point",
        "coordinates": [
          6.005023400000002,
          49.49236529999999
        ]
      }
    },
    {
      "type": "Feature",
      "properties": {
        "area_id": 13,
        "osmid": "8705195542"
      },
      "geometry": {
        "type": "Point",
        "coordinates": [
          5.9746306,
          49.473753099999996
        ]
      }
    },
    {
      "type": "Feature",
      "properties": {
        "area_id": 113,
        "osmid": "5412458013"
      },
      "geometry": {
        "type": "Point",
        "coordinates": [
          5.978454400000001,
          49.487729099999996
        ]
      }
    },
    {
      "type": "Feature",
      "properties": {
        "area_id": 138,
        "osmid": "2845582914"
      },
      "geometry": {
        "type": "Point",
        "coordinates": [
          5.995728799999998,
          49.48413059999999
        ]
      }
    },
    {
      "type": "Feature",
      "properties": {
        "area_id": 26,
        "osmid": "273079877"
      },
      "geometry": {
        "type": "Point",
        "coordinates": [
          6.016721900000001,
          49.49589969999999
        ]
      }
    },
    {
      "type": "Feature",
      "properties": {
        "area_id": 100,
        "osmid": "1385875022"
      },
      "geometry": {
        "type": "Point",
        "coordinates": [
          6.006163400000002,
          49.50377859999998
        ]
      }
    },
    {
      "type": "Feature",
      "properties": {
        "area_id": 41,
        "osmid": "6564460128"
      },
      "geometry": {
        "type": "Point",
        "coordinates": [
          6.0075608,
          49.48932459999999
        ]
      }
    },
    {
      "type": "Feature",
      "properties": {
        "area_id": 41,
        "osmid": "5494982243"
      },
      "geometry": {
        "type": "Point",
        "coordinates": [
          6.007873300000001,
          49.48992269999999
        ]
      }
    },
    {
      "type": "Feature",
      "properties": {
        "area_id": 91,
        "osmid": "813500003"
      },
      "geometry": {
        "type": "Point",
        "coordinates": [
          5.997408300000002,
          49.449105199999984
        ]
      }
    },
    {
      "type": "Feature",
      "properties": {
        "area_id": 41,
        "osmid": "5494982244"
      },
      "geometry": {
        "type": "Point",
        "coordinates": [
          6.0078404,
          49.4896535
        ]
      }
    },
    {
      "type": "Feature",
      "properties": {
        "area_id": 0,
        "osmid": "2736301679"
      },
      "geometry": {
        "type": "Point",
        "coordinates": [
          6.004236200000001,
          49.4966101
        ]
      }
    },
    {
      "type": "Feature",
      "properties": {
        "area_id": 96,
        "osmid": "1304630895"
      },
      "geometry": {
        "type": "Point",
        "coordinates": [
          5.981826500000002,
          49.44696109999999
        ]
      }
    },
    {
      "type": "Feature",
      "properties": {
        "area_id": 54,
        "osmid": "2682545777"
      },
      "geometry": {
        "type": "Point",
        "coordinates": [
          5.992584700000001,
          49.49209439999999
        ]
      }
    },
    {
      "type": "Feature",
      "properties": {
        "area_id": 115,
        "osmid": "2638538354"
      },
      "geometry": {
        "type": "Point",
        "coordinates": [
          5.983434300000001,
          49.48754
        ]
      }
    },
    {
      "type": "Feature",
      "properties": {
        "area_id": 112,
        "osmid": "1632925304"
      },
      "geometry": {
        "type": "Point",
        "coordinates": [
          5.981220800000001,
          49.474881599999996
        ]
      }
    },
    {
      "type": "Feature",
      "properties": {
        "area_id": 109,
        "osmid": "1628706425"
      },
      "geometry": {
        "type": "Point",
        "coordinates": [
          5.982464700000002,
          49.48979629999998
        ]
      }
    },
    {
      "type": "Feature",
      "properties": {
        "area_id": 62,
        "osmid": "10067605124"
      },
      "geometry": {
        "type": "Point",
        "coordinates": [
          5.9821984000000015,
          49.47066749999999
        ]
      }
    },
    {
      "type": "Feature",
      "properties": {
        "area_id": 123,
        "osmid": "1917488778"
      },
      "geometry": {
        "type": "Point",
        "coordinates": [
          5.999234000000001,
          49.487145899999994
        ]
      }
    },
    {
      "type": "Feature",
      "properties": {
        "area_id": 123,
        "osmid": "1917488779"
      },
      "geometry": {
        "type": "Point",
        "coordinates": [
          5.9990726,
          49.48709569999999
        ]
      }
    },
    {
      "type": "Feature",
      "properties": {
        "area_id": 0,
        "osmid": "1385889427"
      },
      "geometry": {
        "type": "Point",
        "coordinates": [
          6.003273900000001,
          49.49817359999999
        ]
      }
    },
    {
      "type": "Feature",
      "properties": {
        "area_id": 57,
        "osmid": "863338138"
      },
      "geometry": {
        "type": "Point",
        "coordinates": [
          5.985496900000001,
          49.478568399999986
        ]
      }
    },
    {
      "type": "Feature",
      "properties": {
        "area_id": 0,
        "osmid": "3801976486"
      },
      "geometry": {
        "type": "Point",
        "coordinates": [
          6.0000211,
          49.49952619999999
        ]
      }
    },
    {
      "type": "Feature",
      "properties": {
        "area_id": 8,
        "osmid": "7673964201"
      },
      "geometry": {
        "type": "Point",
        "coordinates": [
          5.981659400000001,
          49.484292
        ]
      }
    },
    {
      "type": "Feature",
      "properties": {
        "area_id": 138,
        "osmid": "2682740397"
      },
      "geometry": {
        "type": "Point",
        "coordinates": [
          5.995902700000001,
          49.48558799999998
        ]
      }
    },
    {
      "type": "Feature",
      "properties": {
        "area_id": 109,
        "osmid": "5377445558"
      },
      "geometry": {
        "type": "Point",
        "coordinates": [
          5.983734699999999,
          49.488513999999995
        ]
      }
    },
    {
      "type": "Feature",
      "properties": {
        "area_id": 117,
        "osmid": "1768414910"
      },
      "geometry": {
        "type": "Point",
        "coordinates": [
          5.9939244,
          49.4728807
        ]
      }
    },
    {
      "type": "Feature",
      "properties": {
        "area_id": 74,
        "osmid": "2682740415"
      },
      "geometry": {
        "type": "Point",
        "coordinates": [
          5.995828800000002,
          49.484963399999984
        ]
      }
    },
    {
      "type": "Feature",
      "properties": {
        "area_id": 113,
        "osmid": "5377445571"
      },
      "geometry": {
        "type": "Point",
        "coordinates": [
          5.982099900000001,
          49.489684399999994
        ]
      }
    },
    {
      "type": "Feature",
      "properties": {
        "area_id": 13,
        "osmid": "726161108"
      },
      "geometry": {
        "type": "Point",
        "coordinates": [
          5.971272399999999,
          49.47451149999999
        ]
      }
    },
    {
      "type": "Feature",
      "properties": {
        "area_id": 0,
        "osmid": "6790708952"
      },
      "geometry": {
        "type": "Point",
        "coordinates": [
          6.0033068,
          49.50060139999999
        ]
      }
    },
    {
      "type": "Feature",
      "properties": {
        "area_id": 2,
        "osmid": "2687690462"
      },
      "geometry": {
        "type": "Point",
        "coordinates": [
          6.014391000000001,
          49.496122699999994
        ]
      }
    },
    {
      "type": "Feature",
      "properties": {
        "area_id": 117,
        "osmid": "1768414948"
      },
      "geometry": {
        "type": "Point",
        "coordinates": [
          5.995114000000001,
          49.474366499999995
        ]
      }
    },
    {
      "type": "Feature",
      "properties": {
        "area_id": 1,
        "osmid": "2239969001"
      },
      "geometry": {
        "type": "Point",
        "coordinates": [
          6.018342600000001,
          49.4955526
        ]
      }
    },
    {
      "type": "Feature",
      "properties": {
        "area_id": 77,
        "osmid": "8901584621"
      },
      "geometry": {
        "type": "Point",
        "coordinates": [
          6.003493100000001,
          49.492912499999996
        ]
      }
    },
    {
      "type": "Feature",
      "properties": {
        "area_id": 13,
        "osmid": "726161141"
      },
      "geometry": {
        "type": "Point",
        "coordinates": [
          5.970481900000001,
          49.47048419999999
        ]
      }
    },
    {
      "type": "Feature",
      "properties": {
        "area_id": 56,
        "osmid": "9700345606"
      },
      "geometry": {
        "type": "Point",
        "coordinates": [
          5.983814500000002,
          49.48748319999999
        ]
      }
    },
    {
      "type": "Feature",
      "properties": {
        "area_id": 3,
        "osmid": "5117521693"
      },
      "geometry": {
        "type": "Point",
        "coordinates": [
          6.012622600000002,
          49.498645299999986
        ]
      }
    },
    {
      "type": "Feature",
      "properties": {
        "area_id": 172,
        "osmid": "6743893794"
      },
      "geometry": {
        "type": "Point",
        "coordinates": [
          5.981713300000002,
          49.485900499999985
        ]
      }
    },
    {
      "type": "Feature",
      "properties": {
        "area_id": 0,
        "osmid": "2139965242"
      },
      "geometry": {
        "type": "Point",
        "coordinates": [
          5.9949973000000005,
          49.49729819999999
        ]
      }
    },
    {
      "type": "Feature",
      "properties": {
        "area_id": 26,
        "osmid": "493619006"
      },
      "geometry": {
        "type": "Point",
        "coordinates": [
          6.0161412,
          49.49637709999999
        ]
      }
    },
    {
      "type": "Feature",
      "properties": {
        "area_id": 150,
        "osmid": "5414078273"
      },
      "geometry": {
        "type": "Point",
        "coordinates": [
          5.9797993,
          49.47835009999998
        ]
      }
    },
    {
      "type": "Feature",
      "properties": {
        "area_id": 0,
        "osmid": "2139965257"
      },
      "geometry": {
        "type": "Point",
        "coordinates": [
          5.994478100000002,
          49.49712929999998
        ]
      }
    },
    {
      "type": "Feature",
      "properties": {
        "area_id": 0,
        "osmid": "2707715918"
      },
      "geometry": {
        "type": "Point",
        "coordinates": [
          5.996483900000001,
          49.49554219999998
        ]
      }
    },
    {
      "type": "Feature",
      "properties": {
        "area_id": 0,
        "osmid": "2139965262"
      },
      "geometry": {
        "type": "Point",
        "coordinates": [
          5.996181100000001,
          49.49569349999998
        ]
      }
    },
    {
      "type": "Feature",
      "properties": {
        "area_id": 87,
        "osmid": "3353075540"
      },
      "geometry": {
        "type": "Point",
        "coordinates": [
          5.9746923,
          49.46859249999999
        ]
      }
    },
    {
      "type": "Feature",
      "properties": {
        "area_id": 133,
        "osmid": "2448072549"
      },
      "geometry": {
        "type": "Point",
        "coordinates": [
          6.000088,
          49.49377760000001
        ]
      }
    },
    {
      "type": "Feature",
      "properties": {
        "area_id": 0,
        "osmid": "2687797106"
      },
      "geometry": {
        "type": "Point",
        "coordinates": [
          5.994543400000003,
          49.497252899999985
        ]
      }
    },
    {
      "type": "Feature",
      "properties": {
        "area_id": 98,
        "osmid": "1593329529"
      },
      "geometry": {
        "type": "Point",
        "coordinates": [
          6.012953799999999,
          49.457734
        ]
      }
    },
    {
      "type": "Feature",
      "properties": {
        "area_id": 76,
        "osmid": "493606783"
      },
      "geometry": {
        "type": "Point",
        "coordinates": [
          5.9899917,
          49.48657339999998
        ]
      }
    },
    {
      "type": "Feature",
      "properties": {
        "area_id": 0,
        "osmid": "1917523845"
      },
      "geometry": {
        "type": "Point",
        "coordinates": [
          5.997115600000001,
          49.49785649999998
        ]
      }
    },
    {
      "type": "Feature",
      "properties": {
        "area_id": 0,
        "osmid": "2687797132"
      },
      "geometry": {
        "type": "Point",
        "coordinates": [
          5.9973842,
          49.496757899999984
        ]
      }
    },
    {
      "type": "Feature",
      "properties": {
        "area_id": 33,
        "osmid": "776419212"
      },
      "geometry": {
        "type": "Point",
        "coordinates": [
          6.051479,
          49.5004112
        ]
      }
    },
    {
      "type": "Feature",
      "properties": {
        "area_id": 90,
        "osmid": "1593329556"
      },
      "geometry": {
        "type": "Point",
        "coordinates": [
          6.0102899,
          49.458751399999976
        ]
      }
    },
    {
      "type": "Feature",
      "properties": {
        "area_id": 2,
        "osmid": "7678250905"
      },
      "geometry": {
        "type": "Point",
        "coordinates": [
          6.012512100000001,
          49.49629039999999
        ]
      }
    },
    {
      "type": "Feature",
      "properties": {
        "area_id": 115,
        "osmid": "2415863711"
      },
      "geometry": {
        "type": "Point",
        "coordinates": [
          5.983732000000001,
          49.4876811
        ]
      }
    },
    {
      "type": "Feature",
      "properties": {
        "area_id": 56,
        "osmid": "2415863715"
      },
      "geometry": {
        "type": "Point",
        "coordinates": [
          5.983889800000001,
          49.487238499999975
        ]
      }
    },
    {
      "type": "Feature",
      "properties": {
        "area_id": 8,
        "osmid": "2415863721"
      },
      "geometry": {
        "type": "Point",
        "coordinates": [
          5.982884500000002,
          49.484466299999994
        ]
      }
    },
    {
      "type": "Feature",
      "properties": {
        "area_id": 8,
        "osmid": "2415863724"
      },
      "geometry": {
        "type": "Point",
        "coordinates": [
          5.981525900000001,
          49.48427639999998
        ]
      }
    },
    {
      "type": "Feature",
      "properties": {
        "area_id": 8,
        "osmid": "2415863735"
      },
      "geometry": {
        "type": "Point",
        "coordinates": [
          5.982495500000001,
          49.4851955
        ]
      }
    },
    {
      "type": "Feature",
      "properties": {
        "area_id": 0,
        "osmid": "273080248"
      },
      "geometry": {
        "type": "Point",
        "coordinates": [
          6.004043100000001,
          49.5012716
        ]
      }
    },
    {
      "type": "Feature",
      "properties": {
        "area_id": 27,
        "osmid": "273080257"
      },
      "geometry": {
        "type": "Point",
        "coordinates": [
          6.004246200000001,
          49.49953689999999
        ]
      }
    },
    {
      "type": "Feature",
      "properties": {
        "area_id": 28,
        "osmid": "273080279"
      },
      "geometry": {
        "type": "Point",
        "coordinates": [
          6.0066145,
          49.49416759999999
        ]
      }
    },
    {
      "type": "Feature",
      "properties": {
        "area_id": 90,
        "osmid": "1593329628"
      },
      "geometry": {
        "type": "Point",
        "coordinates": [
          6.010387700000001,
          49.458751599999985
        ]
      }
    },
    {
      "type": "Feature",
      "properties": {
        "area_id": 153,
        "osmid": "9500264439"
      },
      "geometry": {
        "type": "Point",
        "coordinates": [
          5.959726800000001,
          49.50599709999998
        ]
      }
    },
    {
      "type": "Feature",
      "properties": {
        "area_id": 67,
        "osmid": "6491301884"
      },
      "geometry": {
        "type": "Point",
        "coordinates": [
          6.000298700000001,
          49.44710489999999
        ]
      }
    },
    {
      "type": "Feature",
      "properties": {
        "area_id": 68,
        "osmid": "412446718"
      },
      "geometry": {
        "type": "Point",
        "coordinates": [
          6.005315800000001,
          49.47625319999999
        ]
      }
    }
  ]
}