{
  "type": "FeatureCollection",
  "features": [
    {
      "type": "Feature",
      "properties": {
        "area_id": 64,
        "osmid": "412446720"
      },
      "geometry": {
        "type": "Point",
        "coordinates": [
          6.006736000000001,
          49.474126899999995
        ]
      }
    },
    {
      "type": "Feature",
      "properties": {
        "area_id": 65,
        "osmid": "412446721"
      },
      "geometry": {
        "type": "Point",
        "coordinates": [
          6.009214500000001,
          49.47074289999998
        ]
      }
    },
    {
      "type": "Feature",
      "properties": {
        "area_id": 30,
        "osmid": "897110019"
      },
      "geometry": {
        "type": "Point",
        "coordinates": [
          6.019605200000002,
          49.472669399999994
        ]
      }
    },
    {
      "type": "Feature",
      "properties": {
        "area_id": 194,
        "osmid": "6319054853"
      },
      "geometry": {
        "type": "Point",
        "coordinates": [
          6.009860800000002,
          49.467249499999994
        ]
      }
    },
    {
      "type": "Feature",
      "properties": {
        "area_id": 2,
        "osmid": "2319495197"
      },
      "geometry": {
        "type": "Point",
        "coordinates": [
          6.012917200000001,
          49.4975695
        ]
      }
    },
    {
      "type": "Feature",
      "properties": {
        "area_id": 8,
        "osmid": "4829132843"
      },
      "geometry": {
        "type": "Point",
        "coordinates": [
          5.983493300000001,
          49.48046449999999
        ]
      }
    },
    {
      "type": "Feature",
      "properties": {
        "area_id": 63,
        "osmid": "2891261997"
      },
      "geometry": {
        "type": "Point",
        "coordinates": [
          5.971778300000002,
          49.48049699999999
        ]
      }
    },
    {
      "type": "Feature",
      "properties": {
        "area_id": 162,
        "osmid": "3858636850"
      },
      "geometry": {
        "type": "Point",
        "coordinates": [
          5.980026600000002,
          49.487729899999984
        ]
      }
    },
    {
      "type": "Feature",
      "properties": {
        "area_id": 8,
        "osmid": "4829132858"
      },
      "geometry": {
        "type": "Point",
        "coordinates": [
          5.9829221000000015,
          49.48617569999999
        ]
      }
    },
    {
      "type": "Feature",
      "properties": {
        "area_id": 63,
        "osmid": "2891262012"
      },
      "geometry": {
        "type": "Point",
        "coordinates": [
          5.972523799999999,
          49.4816538
        ]
      }
    },
    {
      "type": "Feature",
      "properties": {
        "area_id": 26,
        "osmid": "7677024318"
      },
      "geometry": {
        "type": "Point",
        "coordinates": [
          6.0035878,
          49.500189
        ]
      }
    },
    {
      "type": "Feature",
      "properties": {
        "area_id": 63,
        "osmid": "2891262024"
      },
      "geometry": {
        "type": "Point",
        "coordinates": [
          5.9721771,
          49.4819291
        ]
      }
    },
    {
      "type": "Feature",
      "properties": {
        "area_id": 26,
        "osmid": "7677024328"
      },
      "geometry": {
        "type": "Point",
        "coordinates": [
          6.003840600000001,
          49.5008279
        ]
      }
    },
    {
      "type": "Feature",
      "properties": {
        "area_id": 36,
        "osmid": "288825418"
      },
      "geometry": {
        "type": "Point",
        "coordinates": [
          6.008904600000001,
          49.49160009999999
        ]
      }
    },
    {
      "type": "Feature",
      "properties": {
        "area_id": 36,
        "osmid": "288825419"
      },
      "geometry": {
        "type": "Point",
        "coordinates": [
          6.008850899999999,
          49.4915495
        ]
      }
    },
    {
      "type": "Feature",
      "properties": {
        "area_id": 3,
        "osmid": "1914462287"
      },
      "geometry": {
        "type": "Point",
        "coordinates": [
          6.012497400000002,
          49.49673549999999
        ]
      }
    },
    {
      "type": "Feature",
      "properties": {
        "area_id": 5,
        "osmid": "726165583"
      },
      "geometry": {
        "type": "Point",
        "coordinates": [
          5.975108699999999,
          49.45586079999999
        ]
      }
    },
    {
      "type": "Feature",
      "properties": {
        "area_id": 12,
        "osmid": "2891262037"
      },
      "geometry": {
        "type": "Point",
        "coordinates": [
          5.971588300000001,
          49.48239439999999
        ]
      }
    },
    {
      "type": "Feature",
      "properties": {
        "area_id": 117,
        "osmid": "9277638747"
      },
      "geometry": {
        "type": "Point",
        "coordinates": [
          6.008058300000001,
          49.49168319999999
        ]
      }
    },
    {
      "type": "Feature",
      "properties": {
        "area_id": 4,
        "osmid": "3649407069"
      },
      "geometry": {
        "type": "Point",
        "coordinates": [
          6.032902300000002,
          49.5013679
        ]
      }
    },
    {
      "type": "Feature",
      "properties": {
        "area_id": 93,
        "osmid": "813496416"
      },
      "geometry": {
        "type": "Point",
        "coordinates": [
          6.000463700000002,
          49.45013319999998
        ]
      }
    },
    {
      "type": "Feature",
      "properties": {
        "area_id": 37,
        "osmid": "288825444"
      },
      "geometry": {
        "type": "Point",
        "coordinates": [
          6.009264000000001,
          49.489767199999996
        ]
      }
    },
    {
      "type": "Feature",
      "properties": {
        "area_id": 80,
        "osmid": "8116635750"
      },
      "geometry": {
        "type": "Point",
        "coordinates": [
          6.0118195,
          49.47970509999999
        ]
      }
    },
    {
      "type": "Feature",
      "properties": {
        "area_id": 3,
        "osmid": "1914462311"
      },
      "geometry": {
        "type": "Point",
        "coordinates": [
          6.0110718,
          49.498387799999996
        ]
      }
    },
    {
      "type": "Feature",
      "properties": {
        "area_id": 11,
        "osmid": "726165607"
      },
      "geometry": {
        "type": "Point",
        "coordinates": [
          5.9764181,
          49.453471
        ]
      }
    },
    {
      "type": "Feature",
      "properties": {
        "area_id": 39,
        "osmid": "288825452"
      },
      "geometry": {
        "type": "Point",
        "coordinates": [
          6.0080101,
          49.49008339999999
        ]
      }
    },
    {
      "type": "Feature",
      "properties": {
        "area_id": 3,
        "osmid": "1295712366"
      },
      "geometry": {
        "type": "Point",
        "coordinates": [
          6.014793100000002,
          49.497158199999994
        ]
      }
    },
    {
      "type": "Feature",
      "properties": {
        "area_id": 11,
        "osmid": "726165621"
      },
      "geometry": {
        "type": "Point",
        "coordinates": [
          5.974343000000002,
          49.45043979999999
        ]
      }
    },
    {
      "type": "Feature",
      "properties": {
        "area_id": 130,
        "osmid": "2720460920"
      },
      "geometry": {
        "type": "Point",
        "coordinates": [
          6.0203079,
          49.4744195
        ]
      }
    },
    {
      "type": "Feature",
      "properties": {
        "area_id": 1,
        "osmid": "2265806968"
      },
      "geometry": {
        "type": "Point",
        "coordinates": [
          6.027007700000001,
          49.4978271
        ]
      }
    },
    {
      "type": "Feature",
      "properties": {
        "area_id": 110,
        "osmid": "6305874042"
      },
      "geometry": {
        "type": "Point",
        "coordinates": [
          6.021325900000002,
          49.46431789999999
        ]
      }
    },
    {
      "type": "Feature",
      "properties": {
        "area_id": 41,
        "osmid": "288825477"
      },
      "geometry": {
        "type": "Point",
        "coordinates": [
          6.006671,
          49.489911799999994
        ]
      }
    },
    {
      "type": "Feature",
      "properties": {
        "area_id": 143,
        "osmid": "4829132934"
      },
      "geometry": {
        "type": "Point",
        "coordinates": [
          5.977463500000001,
          49.48079469999998
        ]
      }
    },
    {
      "type": "Feature",
      "properties": {
        "area_id": 42,
        "osmid": "288825486"
      },
      "geometry": {
        "type": "Point",
        "coordinates": [
          6.004838700000001,
          49.49151969999999
        ]
      }
    },
    {
      "type": "Feature",
      "properties": {
        "area_id": 150,
        "osmid": "2696700050"
      },
      "geometry": {
        "type": "Point",
        "coordinates": [
          6.023147100000001,
          49.50154429999999
        ]
      }
    },
    {
      "type": "Feature",
      "properties": {
        "area_id": 23,
        "osmid": "2696700051"
      },
      "geometry": {
        "type": "Point",
        "coordinates": [
          6.023110899999999,
          49.50209029999999
        ]
      }
    },
    {
      "type": "Feature",
      "properties": {
        "area_id": 54,
        "osmid": "493607060"
      },
      "geometry": {
        "type": "Point",
        "coordinates": [
          5.991704200000001,
          49.484096399999984
        ]
      }
    },
    {
      "type": "Feature",
      "properties": {
        "area_id": 3,
        "osmid": "246816921"
      },
      "geometry": {
        "type": "Point",
        "coordinates": [
          6.012797900000001,
          49.49837999999999
        ]
      }
    },
    {
      "type": "Feature",
      "properties": {
        "area_id": 138,
        "osmid": "1915824282"
      },
      "geometry": {
        "type": "Point",
        "coordinates": [
          5.999565800000001,
          49.484953799999985
        ]
      }
    },
    {
      "type": "Feature",
      "properties": {
        "area_id": 87,
        "osmid": "726161580"
      },
      "geometry": {
        "type": "Point",
        "coordinates": [
          5.969926700000002,
          49.46999789999999
        ]
      }
    },
    {
      "type": "Feature",
      "properties": {
        "area_id": 0,
        "osmid": "493611187"
      },
      "geometry": {
        "type": "Point",
        "coordinates": [
          5.994410600000001,
          49.49900839999999
        ]
      }
    },
    {
      "type": "Feature",
      "properties": {
        "area_id": 0,
        "osmid": "2448115892"
      },
      "geometry": {
        "type": "Point",
        "coordinates": [
          6.0038178,
          49.499172599999994
        ]
      }
    },
    {
      "type": "Feature",
      "properties": {
        "area_id": 86,
        "osmid": "3797319865"
      },
      "geometry": {
        "type": "Point",
        "coordinates": [
          5.969914600000001,
          49.47513949999999
        ]
      }
    },
    {
      "type": "Feature",
      "properties": {
        "area_id": 191,
        "osmid": "4829132991"
      },
      "geometry": {
        "type": "Point",
        "coordinates": [
          5.9753633000000015,
          49.47570809999999
        ]
      }
    },
    {
      "type": "Feature",
      "properties": {
        "area_id": 191,
        "osmid": "4829132993"
      },
      "geometry": {
        "type": "Point",
        "coordinates": [
          5.975336000000001,
          49.47483529999999
        ]
      }
    },
    {
      "type": "Feature",
      "properties": {
        "area_id": 75,
        "osmid": "945418440"
      },
      "geometry": {
        "type": "Point",
        "coordinates": [
          6.001420900000001,
          49.49497209999998
        ]
      }
    },
    {
      "type": "Feature",
      "properties": {
        "area_id": 22,
        "osmid": "270330060"
      },
      "geometry": {
        "type": "Point",
        "coordinates": [
          6.006545600000001,
          49.495796999999996
        ]
      }
    },
    {
      "type": "Feature",
      "properties": {
        "area_id": 42,
        "osmid": "2756088013"
      },
      "geometry": {
        "type": "Point",
        "coordinates": [
          6.0070324,
          49.491329599999986
        ]
      }
    },
    {
      "type": "Feature",
      "properties": {
        "area_id": 30,
        "osmid": "2228564179"
      },
      "geometry": {
        "type": "Point",
        "coordinates": [
          6.017116200000001,
          49.47916139999999
        ]
      }
    },
    {
      "type": "Feature",
      "properties": {
        "area_id": 1,
        "osmid": "246816982"
      },
      "geometry": {
        "type": "Point",
        "coordinates": [
          6.0160379000000015,
          49.49297069999999
        ]
      }
    },
    {
      "type": "Feature",
      "properties": {
        "area_id": 169,
        "osmid": "7787976933"
      },
      "geometry": {
        "type": "Point",
        "coordinates": [
          5.9877091,
          49.45936019999999
        ]
      }
    },
    {
      "type": "Feature",
      "properties": {
        "area_id": 169,
        "osmid": "7787976942"
      },
      "geometry": {
        "type": "Point",
        "coordinates": [
          5.986492000000001,
          49.45807329999999
        ]
      }
    },
    {
      "type": "Feature",
      "properties": {
        "area_id": 119,
        "osmid": "1598834942"
      },
      "geometry": {
        "type": "Point",
        "coordinates": [
          6.021599500000001,
          49.4614752
        ]
      }
    },
    {
      "type": "Feature",
      "properties": {
        "area_id": 8,
        "osmid": "1633294590"
      },
      "geometry": {
        "type": "Point",
        "coordinates": [
          5.9823608,
          49.48445319999998
        ]
      }
    },
    {
      "type": "Feature",
      "properties": {
        "area_id": 115,
        "osmid": "1447926029"
      },
      "geometry": {
        "type": "Point",
        "coordinates": [
          6.0263021,
          49.479788699999986
        ]
      }
    },
    {
      "type": "Feature",
      "properties": {
        "area_id": 30,
        "osmid": "1447926036"
      },
      "geometry": {
        "type": "Point",
        "coordinates": [
          6.027370200000001,
          49.47818809999998
        ]
      }
    },
    {
      "type": "Feature",
      "properties": {
        "area_id": 115,
        "osmid": "1447926046"
      },
      "geometry": {
        "type": "Point",
        "coordinates": [
          6.027700800000001,
          49.478375799999995
        ]
      }
    },
    {
      "type": "Feature",
      "properties": {
        "area_id": 101,
        "osmid": "1314025759"
      },
      "geometry": {
        "type": "Point",
        "coordinates": [
          5.982928700000001,
          49.464975899999985
        ]
      }
    },
    {
      "type": "Feature",
      "properties": {
        "area_id": 60,
        "osmid": "1314025772"
      },
      "geometry": {
        "type": "Point",
        "coordinates": [
          5.9875458,
          49.4686913
        ]
      }
    },
    {
      "type": "Feature",
      "properties": {
        "area_id": 2,
        "osmid": "1917466925"
      },
      "geometry": {
        "type": "Point",
        "coordinates": [
          6.0144742,
          49.4942735
        ]
      }
    },
    {
      "type": "Feature",
      "properties": {
        "area_id": 2,
        "osmid": "1917466927"
      },
      "geometry": {
        "type": "Point",
        "coordinates": [
          6.0144386,
          49.494401899999986
        ]
      }
    },
    {
      "type": "Feature",
      "properties": {
        "area_id": 8,
        "osmid": "4146405683"
      },
      "geometry": {
        "type": "Point",
        "coordinates": [
          5.986225200000001,
          49.481330799999995
        ]
      }
    },
    {
      "type": "Feature",
      "properties": {
        "area_id": 4,
        "osmid": "7294619956"
      },
      "geometry": {
        "type": "Point",
        "coordinates": [
          6.0326654,
          49.50074549999999
        ]
      }
    },
    {
      "type": "Feature",
      "properties": {
        "area_id": 25,
        "osmid": "2709758266"
      },
      "geometry": {
        "type": "Point",
        "coordinates": [
          6.026890800000001,
          49.50291419999998
        ]
      }
    },
    {
      "type": "Feature",
      "properties": {
        "area_id": 63,
        "osmid": "2204684608"
      },
      "geometry": {
        "type": "Point",
        "coordinates": [
          5.9634143,
          49.4724375
        ]
      }
    },
    {
      "type": "Feature",
      "properties": {
        "area_id": 117,
        "osmid": "2687746372"
      },
      "geometry": {
        "type": "Point",
        "coordinates": [
          6.008081100000001,
          49.49218759999999
        ]
      }
    },
    {
      "type": "Feature",
      "properties": {
        "area_id": 88,
        "osmid": "470559044"
      },
      "geometry": {
        "type": "Point",
        "coordinates": [
          5.9971438,
          49.457730399999996
        ]
      }
    },
    {
      "type": "Feature",
      "properties": {
        "area_id": 91,
        "osmid": "813490502"
      },
      "geometry": {
        "type": "Point",
        "coordinates": [
          6.0070459000000005,
          49.45829029999999
        ]
      }
    },
    {
      "type": "Feature",
      "properties": {
        "area_id": 117,
        "osmid": "1560529221"
      },
      "geometry": {
        "type": "Point",
        "coordinates": [
          6.007534400000002,
          49.492971699999984
        ]
      }
    },
    {
      "type": "Feature",
      "properties": {
        "area_id": 116,
        "osmid": "1447926088"
      },
      "geometry": {
        "type": "Point",
        "coordinates": [
          6.024308400000001,
          49.476056699999994
        ]
      }
    },
    {
      "type": "Feature",
      "properties": {
        "area_id": 117,
        "osmid": "2687746382"
      },
      "geometry": {
        "type": "Point",
        "coordinates": [
          6.008232700000001,
          49.491922399999986
        ]
      }
    },
    {
      "type": "Feature",
      "properties": {
        "area_id": 117,
        "osmid": "2687746387"
      },
      "geometry": {
        "type": "Point",
        "coordinates": [
          6.0080208,
          49.4916497
        ]
      }
    },
    {
      "type": "Feature",
      "properties": {
        "area_id": 202,
        "osmid": "5543659860"
      },
      "geometry": {
        "type": "Point",
        "coordinates": [
          5.979942100000001,
          49.451561899999994
        ]
      }
    },
    {
      "type": "Feature",
      "properties": {
        "area_id": 116,
        "osmid": "1447926103"
      },
      "geometry": {
        "type": "Point",
        "coordinates": [
          6.0238520000000015,
          49.47667319999999
        ]
      }
    },
    {
      "type": "Feature",
      "properties": {
        "area_id": 100,
        "osmid": "5543659864"
      },
      "geometry": {
        "type": "Point",
        "coordinates": [
          5.982408400000002,
          49.448864399999984
        ]
      }
    },
    {
      "type": "Feature",
      "properties": {
        "area_id": 25,
        "osmid": "2978822490"
      },
      "geometry": {
        "type": "Point",
        "coordinates": [
          6.029776200000001,
          49.502404699999985
        ]
      }
    },
    {
      "type": "Feature",
      "properties": {
        "area_id": 41,
        "osmid": "2709758300"
      },
      "geometry": {
        "type": "Point",
        "coordinates": [
          6.006748100000001,
          49.488103599999995
        ]
      }
    },
    {
      "type": "Feature",
      "properties": {
        "area_id": 75,
        "osmid": "1868949857"
      },
      "geometry": {
        "type": "Point",
        "coordinates": [
          6.0048652,
          49.49492979999999
        ]
      }
    },
    {
      "type": "Feature",
      "properties": {
        "area_id": 103,
        "osmid": "1319907686"
      },
      "geometry": {
        "type": "Point",
        "coordinates": [
          6.0112543,
          49.45467259999999
        ]
      }
    },
    {
      "type": "Feature",
      "properties": {
        "area_id": 80,
        "osmid": "600498535"
      },
      "geometry": {
        "type": "Point",
        "coordinates": [
          6.0103007,
          49.479570899999985
        ]
      }
    },
    {
      "type": "Feature",
      "properties": {
        "area_id": 150,
        "osmid": "2265799023"
      },
      "geometry": {
        "type": "Point",
        "coordinates": [
          6.0250396,
          49.50170989999999
        ]
      }
    },
    {
      "type": "Feature",
      "properties": {
        "area_id": 4,
        "osmid": "247372147"
      },
      "geometry": {
        "type": "Point",
        "coordinates": [
          6.0276432,
          49.504487099999984
        ]
      }
    },
    {
      "type": "Feature",
      "properties": {
        "area_id": 72,
        "osmid": "4338192760"
      },
      "geometry": {
        "type": "Point",
        "coordinates": [
          5.996620700000001,
          49.484068799999996
        ]
      }
    },
    {
      "type": "Feature",
      "properties": {
        "area_id": 147,
        "osmid": "7705866618"
      },
      "geometry": {
        "type": "Point",
        "coordinates": [
          5.993210300000002,
          49.49826239999999
        ]
      }
    },
    {
      "type": "Feature",
      "properties": {
        "area_id": 132,
        "osmid": "1855424894"
      },
      "geometry": {
        "type": "Point",
        "coordinates": [
          6.023769400000002,
          49.469192599999985
        ]
      }
    },
    {
      "type": "Feature",
      "properties": {
        "area_id": 42,
        "osmid": "4481677702"
      },
      "geometry": {
        "type": "Point",
        "coordinates": [
          6.0047586,
          49.49197379999999
        ]
      }
    },
    {
      "type": "Feature",
      "properties": {
        "area_id": 37,
        "osmid": "2690537866"
      },
      "geometry": {
        "type": "Point",
        "coordinates": [
          6.008382199999999,
          49.4891016
        ]
      }
    },
    {
      "type": "Feature",
      "properties": {
        "area_id": 30,
        "osmid": "1855424909"
      },
      "geometry": {
        "type": "Point",
        "coordinates": [
          6.0302221,
          49.4670229
        ]
      }
    },
    {
      "type": "Feature",
      "properties": {
        "area_id": 86,
        "osmid": "2696769943"
      },
      "geometry": {
        "type": "Point",
        "coordinates": [
          5.968532700000002,
          49.475126199999984
        ]
      }
    },
    {
      "type": "Feature",
      "properties": {
        "area_id": 87,
        "osmid": "2696769947"
      },
      "geometry": {
        "type": "Point",
        "coordinates": [
          5.971934300000002,
          49.469482799999994
        ]
      }
    },
    {
      "type": "Feature",
      "properties": {
        "area_id": 202,
        "osmid": "10039974301"
      },
      "geometry": {
        "type": "Point",
        "coordinates": [
          5.9758262,
          49.449588
        ]
      }
    },
    {
      "type": "Feature",
      "properties": {
        "area_id": 81,
        "osmid": "600498594"
      },
      "geometry": {
        "type": "Point",
        "coordinates": [
          6.029345000000001,
          49.478672099999976
        ]
      }
    },
    {
      "type": "Feature",
      "properties": {
        "area_id": 81,
        "osmid": "600498595"
      },
      "geometry": {
        "type": "Point",
        "coordinates": [
          6.029239100000001,
          49.47891829999999
        ]
      }
    },
    {
      "type": "Feature",
      "properties": {
        "area_id": 30,
        "osmid": "600498598"
      },
      "geometry": {
        "type": "Point",
        "coordinates": [
          6.028549699999999,
          49.47970729999999
        ]
      }
    },
    {
      "type": "Feature",
      "properties": {
        "area_id": 3,
        "osmid": "6293236135"
      },
      "geometry": {
        "type": "Point",
        "coordinates": [
          6.0142556,
          49.500407199999984
        ]
      }
    },
    {
      "type": "Feature",
      "properties": {
        "area_id": 139,
        "osmid": "2709758376"
      },
      "geometry": {
        "type": "Point",
        "coordinates": [
          6.0002542000000005,
          49.487142199999994
        ]
      }
    },
    {
      "type": "Feature",
      "properties": {
        "area_id": 11,
        "osmid": "10039974315"
      },
      "geometry": {
        "type": "Point",
        "coordinates": [
          5.9748365,
          49.451024
        ]
      }
    },
    {
      "type": "Feature",
      "properties": {
        "area_id": 115,
        "osmid": "1699492275"
      },
      "geometry": {
        "type": "Point",
        "coordinates": [
          6.0278919,
          49.479458099999995
        ]
      }
    },
    {
      "type": "Feature",
      "properties": {
        "area_id": 98,
        "osmid": "2018402746"
      },
      "geometry": {
        "type": "Point",
        "coordinates": [
          6.0130780999999995,
          49.48289799999999
        ]
      }
    },
    {
      "type": "Feature",
      "properties": {
        "area_id": 86,
        "osmid": "4828916164"
      },
      "geometry": {
        "type": "Point",
        "coordinates": [
          5.9685137,
          49.47639369999999
        ]
      }
    },
    {
      "type": "Feature",
      "properties": {
        "area_id": 63,
        "osmid": "4828916165"
      },
      "geometry": {
        "type": "Point",
        "coordinates": [
          5.968582900000001,
          49.476466699999996
        ]
      }
    },
    {
      "type": "Feature",
      "properties": {
        "area_id": 145,
        "osmid": "2018402759"
      },
      "geometry": {
        "type": "Point",
        "coordinates": [
          6.011159000000003,
          49.481564099999986
        ]
      }
    },
    {
      "type": "Feature",
      "properties": {
        "area_id": 156,
        "osmid": "2709758411"
      },
      "geometry": {
        "type": "Point",
        "coordinates": [
          5.9915283,
          49.48954649999999
        ]
      }
    },
    {
      "type": "Feature",
      "properties": {
        "area_id": 39,
        "osmid": "1917479375"
      },
      "geometry": {
        "type": "Point",
        "coordinates": [
          6.007768500000001,
          49.49000089999999
        ]
      }
    },
    {
      "type": "Feature",
      "properties": {
        "area_id": 3,
        "osmid": "7677790673"
      },
      "geometry": {
        "type": "Point",
        "coordinates": [
          6.014061100000001,
          49.49989459999999
        ]
      }
    },
    {
      "type": "Feature",
      "properties": {
        "area_id": 145,
        "osmid": "2018402771"
      },
      "geometry": {
        "type": "Point",
        "coordinates": [
          6.007605000000001,
          49.47843249999999
        ]
      }
    },
    {
      "type": "Feature",
      "properties": {
        "area_id": 39,
        "osmid": "1917479380"
      },
      "geometry": {
        "type": "Point",
        "coordinates": [
          6.0068225,
          49.4883136
        ]
      }
    },
    {
      "type": "Feature",
      "properties": {
        "area_id": 39,
        "osmid": "1917479381"
      },
      "geometry": {
        "type": "Point",
        "coordinates": [
          6.007561300000001,
          49.489897
        ]
      }
    },
    {
      "type": "Feature",
      "properties": {
        "area_id": 56,
        "osmid": "1606656486"
      },
      "geometry": {
        "type": "Point",
        "coordinates": [
          5.9938876,
          49.47757469999999
        ]
      }
    },
    {
      "type": "Feature",
      "properties": {
        "area_id": 157,
        "osmid": "4828412393"
      },
      "geometry": {
        "type": "Point",
        "coordinates": [
          5.9957253,
          49.485594099999986
        ]
      }
    },
    {
      "type": "Feature",
      "properties": {
        "area_id": 25,
        "osmid": "7301738993"
      },
      "geometry": {
        "type": "Point",
        "coordinates": [
          6.0269364,
          49.5028589
        ]
      }
    },
    {
      "type": "Feature",
      "properties": {
        "area_id": 25,
        "osmid": "1295708669"
      },
      "geometry": {
        "type": "Point",
        "coordinates": [
          6.0174767,
          49.49765039999999
        ]
      }
    },
    {
      "type": "Feature",
      "properties": {
        "area_id": 4,
        "osmid": "2658064894"
      },
      "geometry": {
        "type": "Point",
        "coordinates": [
          6.035913700000001,
          49.504826499999986
        ]
      }
    },
    {
      "type": "Feature",
      "properties": {
        "area_id": 124,
        "osmid": "4086635008"
      },
      "geometry": {
        "type": "Point",
        "coordinates": [
          5.9816815000000005,
          49.47248159999999
        ]
      }
    },
    {
      "type": "Feature",
      "properties": {
        "area_id": 25,
        "osmid": "1295708675"
      },
      "geometry": {
        "type": "Point",
        "coordinates": [
          6.0187040000000005,
          49.498776299999996
        ]
      }
    },
    {
      "type": "Feature",
      "properties": {
        "area_id": 130,
        "osmid": "5596723723"
      },
      "geometry": {
        "type": "Point",
        "coordinates": [
          6.020419200000001,
          49.474504599999996
        ]
      }
    },
    {
      "type": "Feature",
      "properties": {
        "area_id": 130,
        "osmid": "5596723724"
      },
      "geometry": {
        "type": "Point",
        "coordinates": [
          6.020291,
          49.474486899999995
        ]
      }
    },
    {
      "type": "Feature",
      "properties": {
        "area_id": 3,
        "osmid": "8661412369"
      },
      "geometry": {
        "type": "Point",
        "coordinates": [
          6.0139786,
          49.4999774
        ]
      }
    },
    {
      "type": "Feature",
      "properties": {
        "area_id": 162,
        "osmid": "2709758482"
      },
      "geometry": {
        "type": "Point",
        "coordinates": [
          5.980244500000001,
          49.487403199999996
        ]
      }
    },
    {
      "type": "Feature",
      "properties": {
        "area_id": 162,
        "osmid": "2709758484"
      },
      "geometry": {
        "type": "Point",
        "coordinates": [
          5.980218399999999,
          49.48744979999999
        ]
      }
    },
    {
      "type": "Feature",
      "properties": {
        "area_id": 3,
        "osmid": "7677790748"
      },
      "geometry": {
        "type": "Point",
        "coordinates": [
          6.015225200000001,
          49.499460899999995
        ]
      }
    },
    {
      "type": "Feature",
      "properties": {
        "area_id": 92,
        "osmid": "1303261765"
      },
      "geometry": {
        "type": "Point",
        "coordinates": [
          6.007831400000002,
          49.45161439999998
        ]
      }
    },
    {
      "type": "Feature",
      "properties": {
        "area_id": 52,
        "osmid": "335888997"
      },
      "geometry": {
        "type": "Point",
        "coordinates": [
          5.992333199999999,
          49.497801199999984
        ]
      }
    },
    {
      "type": "Feature",
      "properties": {
        "area_id": 30,
        "osmid": "1428841062"
      },
      "geometry": {
        "type": "Point",
        "coordinates": [
          6.0193531,
          49.47254909999999
        ]
      }
    },
    {
      "type": "Feature",
      "properties": {
        "area_id": 113,
        "osmid": "1594643068"
      },
      "geometry": {
        "type": "Point",
        "coordinates": [
          6.0196837,
          49.463620199999994
        ]
      }
    },
    {
      "type": "Feature",
      "properties": {
        "area_id": 168,
        "osmid": "2891485825"
      },
      "geometry": {
        "type": "Point",
        "coordinates": [
          5.9661099,
          49.464168
        ]
      }
    },
    {
      "type": "Feature",
      "properties": {
        "area_id": 168,
        "osmid": "2891485827"
      },
      "geometry": {
        "type": "Point",
        "coordinates": [
          5.9688232,
          49.46719069999999
        ]
      }
    },
    {
      "type": "Feature",
      "properties": {
        "area_id": 11,
        "osmid": "813488787"
      },
      "geometry": {
        "type": "Point",
        "coordinates": [
          5.9692126000000005,
          49.459337699999985
        ]
      }
    },
    {
      "type": "Feature",
      "properties": {
        "area_id": 168,
        "osmid": "2891485848"
      },
      "geometry": {
        "type": "Point",
        "coordinates": [
          5.968106799999999,
          49.46901739999999
        ]
      }
    },
    {
      "type": "Feature",
      "properties": {
        "area_id": 8,
        "osmid": "4884290202"
      },
      "geometry": {
        "type": "Point",
        "coordinates": [
          5.983674399999999,
          49.48705989999999
        ]
      }
    },
    {
      "type": "Feature",
      "properties": {
        "area_id": 88,
        "osmid": "800008861"
      },
      "geometry": {
        "type": "Point",
        "coordinates": [
          5.992913200000002,
          49.457381999999996
        ]
      }
    },
    {
      "type": "Feature",
      "properties": {
        "area_id": 81,
        "osmid": "6915486383"
      },
      "geometry": {
        "type": "Point",
        "coordinates": [
          6.029454900000001,
          49.478757399999985
        ]
      }
    },
    {
      "type": "Feature",
      "properties": {
        "area_id": 39,
        "osmid": "10090404549"
      },
      "geometry": {
        "type": "Point",
        "coordinates": [
          6.008100400000001,
          49.48905679999999
        ]
      }
    },
    {
      "type": "Feature",
      "properties": {
        "area_id": 25,
        "osmid": "10739321542"
      },
      "geometry": {
        "type": "Point",
        "coordinates": [
          6.027098900000001,
          49.50254429999999
        ]
      }
    },
    {
      "type": "Feature",
      "properties": {
        "area_id": 138,
        "osmid": "2399390414"
      },
      "geometry": {
        "type": "Point",
        "coordinates": [
          5.998826200000001,
          49.484065499999986
        ]
      }
    },
    {
      "type": "Feature",
      "properties": {
        "area_id": 98,
        "osmid": "2707458791"
      },
      "geometry": {
        "type": "Point",
        "coordinates": [
          6.0147786,
          49.4826087
        ]
      }
    },
    {
      "type": "Feature",
      "properties": {
        "area_id": 117,
        "osmid": "1869900535"
      },
      "geometry": {
        "type": "Point",
        "coordinates": [
          6.005226200000001,
          49.49247029999999
        ]
      }
    },
    {
      "type": "Feature",
      "properties": {
        "area_id": 112,
        "osmid": "1428818686"
      },
      "geometry": {
        "type": "Point",
        "coordinates": [
          6.0118217000000005,
          49.47535659999999
        ]
      }
    },
    {
      "type": "Feature",
      "properties": {
        "area_id": 119,
        "osmid": "1593404169"
      },
      "geometry": {
        "type": "Point",
        "coordinates": [
          6.0194121,
          49.46155649999998
        ]
      }
    },
    {
      "type": "Feature",
      "properties": {
        "area_id": 169,
        "osmid": "2891535121"
      },
      "geometry": {
        "type": "Point",
        "coordinates": [
          5.982338099999998,
          49.45760719999999
        ]
      }
    },
    {
      "type": "Feature",
      "properties": {
        "area_id": 169,
        "osmid": "2891535126"
      },
      "geometry": {
        "type": "Point",
        "coordinates": [
          5.9832692,
          49.4584857
        ]
      }
    },
    {
      "type": "Feature",
      "properties": {
        "area_id": 54,
        "osmid": "1606658845"
      },
      "geometry": {
        "type": "Point",
        "coordinates": [
          5.991621800000001,
          49.4894034
        ]
      }
    },
    {
      "type": "Feature",
      "properties": {
        "area_id": 72,
        "osmid": "470567714"
      },
      "geometry": {
        "type": "Point",
        "coordinates": [
          5.998009400000001,
          49.4859953
        ]
      }
    },
    {
      "type": "Feature",
      "properties": {
        "area_id": 110,
        "osmid": "1428818723"
      },
      "geometry": {
        "type": "Point",
        "coordinates": [
          6.0238636,
          49.46716599999999
        ]
      }
    },
    {
      "type": "Feature",
      "properties": {
        "area_id": 39,
        "osmid": "1915116324"
      },
      "geometry": {
        "type": "Point",
        "coordinates": [
          6.008149200000002,
          49.4894959
        ]
      }
    },
    {
      "type": "Feature",
      "properties": {
        "area_id": 39,
        "osmid": "1915116327"
      },
      "geometry": {
        "type": "Point",
        "coordinates": [
          6.007932200000001,
          49.489477999999984
        ]
      }
    },
    {
      "type": "Feature",
      "properties": {
        "area_id": 25,
        "osmid": "7677791019"
      },
      "geometry": {
        "type": "Point",
        "coordinates": [
          6.025168,
          49.50162809999999
        ]
      }
    },
    {
      "type": "Feature",
      "properties": {
        "area_id": 113,
        "osmid": "1428818734"
      },
      "geometry": {
        "type": "Point",
        "coordinates": [
          6.0174051,
          49.468430899999994
        ]
      }
    },
    {
      "type": "Feature",
      "properties": {
        "area_id": 51,
        "osmid": "331408183"
      },
      "geometry": {
        "type": "Point",
        "coordinates": [
          5.9957698,
          49.494566799999994
        ]
      }
    },
    {
      "type": "Feature",
      "properties": {
        "area_id": 52,
        "osmid": "331408190"
      },
      "geometry": {
        "type": "Point",
        "coordinates": [
          5.992579999999999,
          49.495914099999986
        ]
      }
    },
    {
      "type": "Feature",
      "properties": {
        "area_id": 202,
        "osmid": "6270206786"
      },
      "geometry": {
        "type": "Point",
        "coordinates": [
          5.975889300000001,
          49.4522786
        ]
      }
    },
    {
      "type": "Feature",
      "properties": {
        "area_id": 12,
        "osmid": "3352861507"
      },
      "geometry": {
        "type": "Point",
        "coordinates": [
          5.973044100000003,
          49.48350829999998
        ]
      }
    },
    {
      "type": "Feature",
      "properties": {
        "area_id": 5,
        "osmid": "6270206791"
      },
      "geometry": {
        "type": "Point",
        "coordinates": [
          5.980624700000001,
          49.460055499999996
        ]
      }
    },
    {
      "type": "Feature",
      "properties": {
        "area_id": 191,
        "osmid": "5866208072"
      },
      "geometry": {
        "type": "Point",
        "coordinates": [
          5.974558900000001,
          49.4750184
        ]
      }
    },
    {
      "type": "Feature",
      "properties": {
        "area_id": 34,
        "osmid": "286362441"
      },
      "geometry": {
        "type": "Point",
        "coordinates": [
          5.997676800000001,
          49.501982399999996
        ]
      }
    },
    {
      "type": "Feature",
      "properties": {
        "area_id": 144,
        "osmid": "3352861513"
      },
      "geometry": {
        "type": "Point",
        "coordinates": [
          5.9734753,
          49.4831132
        ]
      }
    },
    {
      "type": "Feature",
      "properties": {
        "area_id": 63,
        "osmid": "5866208087"
      },
      "geometry": {
        "type": "Point",
        "coordinates": [
          5.974403999999999,
          49.475566099999995
        ]
      }
    },
    {
      "type": "Feature",
      "properties": {
        "area_id": 177,
        "osmid": "3554392921"
      },
      "geometry": {
        "type": "Point",
        "coordinates": [
          5.9794412,
          49.4792424
        ]
      }
    },
    {
      "type": "Feature",
      "properties": {
        "area_id": 54,
        "osmid": "331408225"
      },
      "geometry": {
        "type": "Point",
        "coordinates": [
          5.993054100000001,
          49.48859539999998
        ]
      }
    },
    {
      "type": "Feature",
      "properties": {
        "area_id": 150,
        "osmid": "2319485795"
      },
      "geometry": {
        "type": "Point",
        "coordinates": [
          6.023474600000002,
          49.501355599999975
        ]
      }
    },
    {
      "type": "Feature",
      "properties": {
        "area_id": 150,
        "osmid": "2265820004"
      },
      "geometry": {
        "type": "Point",
        "coordinates": [
          6.023163200000002,
          49.50141799999999
        ]
      }
    },
    {
      "type": "Feature",
      "properties": {
        "area_id": 169,
        "osmid": "5607947110"
      },
      "geometry": {
        "type": "Point",
        "coordinates": [
          5.9824986,
          49.4572116
        ]
      }
    },
    {
      "type": "Feature",
      "properties": {
        "area_id": 74,
        "osmid": "3304397683"
      },
      "geometry": {
        "type": "Point",
        "coordinates": [
          5.991281100000001,
          49.48517269999999
        ]
      }
    },
    {
      "type": "Feature",
      "properties": {
        "area_id": 141,
        "osmid": "3089341314"
      },
      "geometry": {
        "type": "Point",
        "coordinates": [
          5.994867900000003,
          49.482808699999985
        ]
      }
    },
    {
      "type": "Feature",
      "properties": {
        "area_id": 23,
        "osmid": "273079174"
      },
      "geometry": {
        "type": "Point",
        "coordinates": [
          6.025606700000001,
          49.50210429999998
        ]
      }
    },
    {
      "type": "Feature",
      "properties": {
        "area_id": 81,
        "osmid": "8475661195"
      },
      "geometry": {
        "type": "Point",
        "coordinates": [
          6.029269900000001,
          49.47879149999999
        ]
      }
    },
    {
      "type": "Feature",
      "properties": {
        "area_id": 45,
        "osmid": "470567821"
      },
      "geometry": {
        "type": "Point",
        "coordinates": [
          6.000566300000001,
          49.48753299999999
        ]
      }
    },
    {
      "type": "Feature",
      "properties": {
        "area_id": 81,
        "osmid": "8475661197"
      },
      "geometry": {
        "type": "Point",
        "coordinates": [
          6.029267900000001,
          49.47854619999999
        ]
      }
    },
    {
      "type": "Feature",
      "properties": {
        "area_id": 8,
        "osmid": "2929554329"
      },
      "geometry": {
        "type": "Point",
        "coordinates": [
          5.9829931,
          49.48366119999999
        ]
      }
    },
    {
      "type": "Feature",
      "properties": {
        "area_id": 134,
        "osmid": "1843211162"
      },
      "geometry": {
        "type": "Point",
        "coordinates": [
          6.007296600000001,
          49.4616821
        ]
      }
    },
    {
      "type": "Feature",
      "properties": {
        "area_id": 25,
        "osmid": "273079196"
      },
      "geometry": {
        "type": "Point",
        "coordinates": [
          6.0207854,
          49.49915999999999
        ]
      }
    },
    {
      "type": "Feature",
      "properties": {
        "area_id": 91,
        "osmid": "1319910301"
      },
      "geometry": {
        "type": "Point",
        "coordinates": [
          6.0070927,
          49.4569086
        ]
      }
    },
    {
      "type": "Feature",
      "properties": {
        "area_id": 176,
        "osmid": "3492739999"
      },
      "geometry": {
        "type": "Point",
        "coordinates": [
          5.9879624,
          49.470689699999994
        ]
      }
    },
    {
      "type": "Feature",
      "properties": {
        "area_id": 3,
        "osmid": "2698587044"
      },
      "geometry": {
        "type": "Point",
        "coordinates": [
          6.015312400000002,
          49.49703339999999
        ]
      }
    },
    {
      "type": "Feature",
      "properties": {
        "area_id": 87,
        "osmid": "8944571309"
      },
      "geometry": {
        "type": "Point",
        "coordinates": [
          5.9702139999999995,
          49.47021729999999
        ]
      }
    },
    {
      "type": "Feature",
      "properties": {
        "area_id": 3,
        "osmid": "2698587056"
      },
      "geometry": {
        "type": "Point",
        "coordinates": [
          6.017169900000002,
          49.49812279999999
        ]
      }
    },
    {
      "type": "Feature",
      "properties": {
        "area_id": 175,
        "osmid": "3488799665"
      },
      "geometry": {
        "type": "Point",
        "coordinates": [
          6.028258499999999,
          49.45921129999999
        ]
      }
    },
    {
      "type": "Feature",
      "properties": {
        "area_id": 56,
        "osmid": "331408310"
      },
      "geometry": {
        "type": "Point",
        "coordinates": [
          5.9939242,
          49.47752029999999
        ]
      }
    },
    {
      "type": "Feature",
      "properties": {
        "area_id": 185,
        "osmid": "2863809464"
      },
      "geometry": {
        "type": "Point",
        "coordinates": [
          5.988315900000002,
          49.46705029999998
        ]
      }
    },
    {
      "type": "Feature",
      "properties": {
        "area_id": 3,
        "osmid": "2698587065"
      },
      "geometry": {
        "type": "Point",
        "coordinates": [
          6.0175923,
          49.4985054
        ]
      }
    },
    {
      "type": "Feature",
      "properties": {
        "area_id": 58,
        "osmid": "335889338"
      },
      "geometry": {
        "type": "Point",
        "coordinates": [
          6.0030083,
          49.4908243
        ]
      }
    },
    {
      "type": "Feature",
      "properties": {
        "area_id": 3,
        "osmid": "2698587070"
      },
      "geometry": {
        "type": "Point",
        "coordinates": [
          6.017069200000001,
          49.49895619999999
        ]
      }
    },
    {
      "type": "Feature",
      "properties": {
        "area_id": 7,
        "osmid": "247841727"
      },
      "geometry": {
        "type": "Point",
        "coordinates": [
          5.9858063,
          49.488462299999995
        ]
      }
    },
    {
      "type": "Feature",
      "properties": {
        "area_id": 8,
        "osmid": "1633921985"
      },
      "geometry": {
        "type": "Point",
        "coordinates": [
          5.9847592999999994,
          49.4806309
        ]
      }
    },
    {
      "type": "Feature",
      "properties": {
        "area_id": 8,
        "osmid": "1633921989"
      },
      "geometry": {
        "type": "Point",
        "coordinates": [
          5.984568000000002,
          49.48074359999999
        ]
      }
    },
    {
      "type": "Feature",
      "properties": {
        "area_id": 165,
        "osmid": "2844144581"
      },
      "geometry": {
        "type": "Point",
        "coordinates": [
          6.004403800000001,
          49.47193429999999
        ]
      }
    },
    {
      "type": "Feature",
      "properties": {
        "area_id": 72,
        "osmid": "470567893"
      },
      "geometry": {
        "type": "Point",
        "coordinates": [
          5.9968353,
          49.4863264
        ]
      }
    },
    {
      "type": "Feature",
      "properties": {
        "area_id": 41,
        "osmid": "331408343"
      },
      "geometry": {
        "type": "Point",
        "coordinates": [
          6.006632400000001,
          49.487444599999996
        ]
      }
    },
    {
      "type": "Feature",
      "properties": {
        "area_id": 68,
        "osmid": "296207321"
      },
      "geometry": {
        "type": "Point",
        "coordinates": [
          6.0441233,
          49.49441459999999
        ]
      }
    },
    {
      "type": "Feature",
      "properties": {
        "area_id": 0,
        "osmid": "2751552475"
      },
      "geometry": {
        "type": "Point",
        "coordinates": [
          6.003975800000002,
          49.49938779999998
        ]
      }
    },
    {
      "type": "Feature",
      "properties": {
        "area_id": 197,
        "osmid": "3699684327"
      },
      "geometry": {
        "type": "Point",
        "coordinates": [
          6.015582600000001,
          49.45599069999999
        ]
      }
    },
    {
      "type": "Feature",
      "properties": {
        "area_id": 55,
        "osmid": "3554452461"
      },
      "geometry": {
        "type": "Point",
        "coordinates": [
          5.986084300000002,
          49.47857189999999
        ]
      }
    },
    {
      "type": "Feature",
      "properties": {
        "area_id": 182,
        "osmid": "8714345455"
      },
      "geometry": {
        "type": "Point",
        "coordinates": [
          5.961038500000003,
          49.50517819999999
        ]
      }
    },
    {
      "type": "Feature",
      "properties": {
        "area_id": 55,
        "osmid": "3554452464"
      },
      "geometry": {
        "type": "Point",
        "coordinates": [
          5.9867978000000015,
          49.478489999999994
        ]
      }
    },
    {
      "type": "Feature",
      "properties": {
        "area_id": 0,
        "osmid": "331408375"
      },
      "geometry": {
        "type": "Point",
        "coordinates": [
          6.0032714,
          49.49671859999999
        ]
      }
    },
    {
      "type": "Feature",
      "properties": {
        "area_id": 39,
        "osmid": "3210679289"
      },
      "geometry": {
        "type": "Point",
        "coordinates": [
          6.0079162,
          49.489369499999995
        ]
      }
    },
    {
      "type": "Feature",
      "properties": {
        "area_id": 141,
        "osmid": "1917498368"
      },
      "geometry": {
        "type": "Point",
        "coordinates": [
          5.9944148,
          49.482467199999995
        ]
      }
    },
    {
      "type": "Feature",
      "properties": {
        "area_id": 143,
        "osmid": "2002791427"
      },
      "geometry": {
        "type": "Point",
        "coordinates": [
          5.976323200000001,
          49.48309819999998
        ]
      }
    },
    {
      "type": "Feature",
      "properties": {
        "area_id": 68,
        "osmid": "776436754"
      },
      "geometry": {
        "type": "Point",
        "coordinates": [
          6.0435055,
          49.5026373
        ]
      }
    },
    {
      "type": "Feature",
      "properties": {
        "area_id": 8,
        "osmid": "2165560339"
      },
      "geometry": {
        "type": "Point",
        "coordinates": [
          5.986675100000001,
          49.48159019999999
        ]
      }
    },
    {
      "type": "Feature",
      "properties": {
        "area_id": 60,
        "osmid": "8121418772"
      },
      "geometry": {
        "type": "Point",
        "coordinates": [
          5.9877441,
          49.4687896
        ]
      }
    },
    {
      "type": "Feature",
      "properties": {
        "area_id": 58,
        "osmid": "335889429"
      },
      "geometry": {
        "type": "Point",
        "coordinates": [
          6.003429700000001,
          49.4868673
        ]
      }
    },
    {
      "type": "Feature",
      "properties": {
        "area_id": 101,
        "osmid": "8121418774"
      },
      "geometry": {
        "type": "Point",
        "coordinates": [
          5.983505000000001,
          49.467178699999984
        ]
      }
    },
    {
      "type": "Feature",
      "properties": {
        "area_id": 86,
        "osmid": "2891510803"
      },
      "geometry": {
        "type": "Point",
        "coordinates": [
          5.9694711,
          49.4761573
        ]
      }
    },
    {
      "type": "Feature",
      "properties": {
        "area_id": 0,
        "osmid": "288822295"
      },
      "geometry": {
        "type": "Point",
        "coordinates": [
          6.003978500000002,
          49.49930649999999
        ]
      }
    },
    {
      "type": "Feature",
      "properties": {
        "area_id": 185,
        "osmid": "4354085917"
      },
      "geometry": {
        "type": "Point",
        "coordinates": [
          5.990481800000001,
          49.46530109999999
        ]
      }
    },
    {
      "type": "Feature",
      "properties": {
        "area_id": 25,
        "osmid": "7294645278"
      },
      "geometry": {
        "type": "Point",
        "coordinates": [
          6.0170867,
          49.49772149999999
        ]
      }
    },
    {
      "type": "Feature",
      "properties": {
        "area_id": 0,
        "osmid": "288822307"
      },
      "geometry": {
        "type": "Point",
        "coordinates": [
          6.0031908,
          49.4977337
        ]
      }
    },
    {
      "type": "Feature",
      "properties": {
        "area_id": 42,
        "osmid": "1163693116"
      },
      "geometry": {
        "type": "Point",
        "coordinates": [
          6.005951500000001,
          49.49113400000001
        ]
      }
    },
    {
      "type": "Feature",
      "properties": {
        "area_id": 89,
        "osmid": "3064996928"
      },
      "geometry": {
        "type": "Point",
        "coordinates": [
          6.017061199999999,
          49.4568711
        ]
      }
    },
    {
      "type": "Feature",
      "properties": {
        "area_id": 36,
        "osmid": "493614145"
      },
      "geometry": {
        "type": "Point",
        "coordinates": [
          6.008382900000002,
          49.49207829999999
        ]
      }
    },
    {
      "type": "Feature",
      "properties": {
        "area_id": 39,
        "osmid": "1163693139"
      },
      "geometry": {
        "type": "Point",
        "coordinates": [
          6.008230700000001,
          49.48899829999999
        ]
      }
    },
    {
      "type": "Feature",
      "properties": {
        "area_id": 75,
        "osmid": "493610068"
      },
      "geometry": {
        "type": "Point",
        "coordinates": [
          6.0030407,
          49.496079
        ]
      }
    },
    {
      "type": "Feature",
      "properties": {
        "area_id": 60,
        "osmid": "412445798"
      },
      "geometry": {
        "type": "Point",
        "coordinates": [
          5.9880182,
          49.46747909999999
        ]
      }
    },
    {
      "type": "Feature",
      "properties": {
        "area_id": 74,
        "osmid": "4828433514"
      },
      "geometry": {
        "type": "Point",
        "coordinates": [
          5.9897442000000005,
          49.48670009999999
        ]
      }
    },
    {
      "type": "Feature",
      "properties": {
        "area_id": 143,
        "osmid": "2002789513"
      },
      "geometry": {
        "type": "Point",
        "coordinates": [
          5.977509300000001,
          49.48079559999999
        ]
      }
    },
    {
      "type": "Feature",
      "properties": {
        "area_id": 144,
        "osmid": "2002789515"
      },
      "geometry": {
        "type": "Point",
        "coordinates": [
          5.9753059,
          49.4837915
        ]
      }
    },
    {
      "type": "Feature",
      "properties": {
        "area_id": 134,
        "osmid": "3423349900"
      },
      "geometry": {
        "type": "Point",
        "coordinates": [
          6.0099231,
          49.463582699999996
        ]
      }
    },
    {
      "type": "Feature",
      "properties": {
        "area_id": 187,
        "osmid": "9222657166"
      },
      "geometry": {
        "type": "Point",
        "coordinates": [
          5.9777649,
          49.498560499999996
        ]
      }
    },
    {
      "type": "Feature",
      "properties": {
        "area_id": 168,
        "osmid": "4291204246"
      },
      "geometry": {
        "type": "Point",
        "coordinates": [
          5.961617200000001,
          49.465662800000004
        ]
      }
    },
    {
      "type": "Feature",
      "properties": {
        "area_id": 75,
        "osmid": "2448080026"
      },
      "geometry": {
        "type": "Point",
        "coordinates": [
          6.0019804,
          49.494390100000004
        ]
      }
    },
    {
      "type": "Feature",
      "properties": {
        "area_id": 5,
        "osmid": "412445855"
      },
      "geometry": {
        "type": "Point",
        "coordinates": [
          5.9759416,
          49.4627638
        ]
      }
    },
    {
      "type": "Feature",
      "properties": {
        "area_id": 43,
        "osmid": "288828583"
      },
      "geometry": {
        "type": "Point",
        "coordinates": [
          6.0068151000000025,
          49.501601699999995
        ]
      }
    },
    {
      "type": "Feature",
      "properties": {
        "area_id": 173,
        "osmid": "12806280366"
      },
      "geometry": {
        "type": "Point",
        "coordinates": [
          5.974509100000001,
          49.484254199999995
        ]
      }
    },
    {
      "type": "Feature",
      "properties": {
        "area_id": 211,
        "osmid": "6872308938"
      },
      "geometry": {
        "type": "Point",
        "coordinates": [
          5.975854900000002,
          49.480470699999984
        ]
      }
    },
    {
      "type": "Feature",
      "properties": {
        "area_id": 148,
        "osmid": "4878556366"
      },
      "geometry": {
        "type": "Point",
        "coordinates": [
          5.990880100000001,
          49.47881589999999
        ]
      }
    },
    {
      "type": "Feature",
      "properties": {
        "area_id": 10,
        "osmid": "9482024155"
      },
      "geometry": {
        "type": "Point",
        "coordinates": [
          5.987428800000002,
          49.497113099999986
        ]
      }
    },
    {
      "type": "Feature",
      "properties": {
        "area_id": 3,
        "osmid": "2980869341"
      },
      "geometry": {
        "type": "Point",
        "coordinates": [
          6.012837700000002,
          49.49807319999999
        ]
      }
    },
    {
      "type": "Feature",
      "properties": {
        "area_id": 10,
        "osmid": "9482024157"
      },
      "geometry": {
        "type": "Point",
        "coordinates": [
          5.987660100000002,
          49.4970053
        ]
      }
    },
    {
      "type": "Feature",
      "properties": {
        "area_id": 65,
        "osmid": "1594629344"
      },
      "geometry": {
        "type": "Point",
        "coordinates": [
          6.009663,
          49.46840469999998
        ]
      }
    },
    {
      "type": "Feature",
      "properties": {
        "area_id": 3,
        "osmid": "2980869352"
      },
      "geometry": {
        "type": "Point",
        "coordinates": [
          6.0140665,
          49.49985409999999
        ]
      }
    },
    {
      "type": "Feature",
      "properties": {
        "area_id": 87,
        "osmid": "3353099502"
      },
      "geometry": {
        "type": "Point",
        "coordinates": [
          5.9696853,
          49.46890929999998
        ]
      }
    },
    {
      "type": "Feature",
      "properties": {
        "area_id": 110,
        "osmid": "1428819183"
      },
      "geometry": {
        "type": "Point",
        "coordinates": [
          6.023747,
          49.46739159999999
        ]
      }
    },
    {
      "type": "Feature",
      "properties": {
        "area_id": 87,
        "osmid": "3353099511"
      },
      "geometry": {
        "type": "Point",
        "coordinates": [
          5.968027700000001,
          49.4682989
        ]
      }
    },
    {
      "type": "Feature",
      "properties": {
        "area_id": 22,
        "osmid": "270257401"
      },
      "geometry": {
        "type": "Point",
        "coordinates": [
          6.005337199999998,
          49.4962338
        ]
      }
    },
    {
      "type": "Feature",
      "properties": {
        "area_id": 2,
        "osmid": "1917385998"
      },
      "geometry": {
        "type": "Point",
        "coordinates": [
          6.015631600000001,
          49.49632519999998
        ]
      }
    },
    {
      "type": "Feature",
      "properties": {
        "area_id": 156,
        "osmid": "7674762522"
      },
      "geometry": {
        "type": "Point",
        "coordinates": [
          5.991820200000001,
          49.49310899999999
        ]
      }
    },
    {
      "type": "Feature",
      "properties": {
        "area_id": 55,
        "osmid": "863173915"
      },
      "geometry": {
        "type": "Point",
        "coordinates": [
          5.9858388000000025,
          49.48104409999999
        ]
      }
    },
    {
      "type": "Feature",
      "properties": {
        "area_id": 8,
        "osmid": "863173916"
      },
      "geometry": {
        "type": "Point",
        "coordinates": [
          5.986054800000002,
          49.48145339999999
        ]
      }
    },
    {
      "type": "Feature",
      "properties": {
        "area_id": 63,
        "osmid": "2891271460"
      },
      "geometry": {
        "type": "Point",
        "coordinates": [
          5.9652878000000005,
          49.47438569999998
        ]
      }
    },
    {
      "type": "Feature",
      "properties": {
        "area_id": 55,
        "osmid": "863173925"
      },
      "geometry": {
        "type": "Point",
        "coordinates": [
          5.985861700000001,
          49.479194899999996
        ]
      }
    },
    {
      "type": "Feature",
      "properties": {
        "area_id": 99,
        "osmid": "9482024242"
      },
      "geometry": {
        "type": "Point",
        "coordinates": [
          5.975361500000001,
          49.48922199999999
        ]
      }
    },
    {
      "type": "Feature",
      "properties": {
        "area_id": 3,
        "osmid": "270257461"
      },
      "geometry": {
        "type": "Point",
        "coordinates": [
          6.014429500000002,
          49.500565699999996
        ]
      }
    },
    {
      "type": "Feature",
      "properties": {
        "area_id": 39,
        "osmid": "1828506940"
      },
      "geometry": {
        "type": "Point",
        "coordinates": [
          6.007962700000002,
          49.489190799999996
        ]
      }
    },
    {
      "type": "Feature",
      "properties": {
        "area_id": 30,
        "osmid": "3325873471"
      },
      "geometry": {
        "type": "Point",
        "coordinates": [
          6.0283023,
          49.47824299999999
        ]
      }
    },
    {
      "type": "Feature",
      "properties": {
        "area_id": 39,
        "osmid": "1828506944"
      },
      "geometry": {
        "type": "Point",
        "coordinates": [
          6.0076332,
          49.48982859999999
        ]
      }
    },
    {
      "type": "Feature",
      "properties": {
        "area_id": 63,
        "osmid": "2002793799"
      },
      "geometry": {
        "type": "Point",
        "coordinates": [
          5.9734362,
          49.4827146
        ]
      }
    },
    {
      "type": "Feature",
      "properties": {
        "area_id": 75,
        "osmid": "4298325321"
      },
      "geometry": {
        "type": "Point",
        "coordinates": [
          6.003712200000001,
          49.49576219999999
        ]
      }
    },
    {
      "type": "Feature",
      "properties": {
        "area_id": 0,
        "osmid": "4928572751"
      },
      "geometry": {
        "type": "Point",
        "coordinates": [
          6.002632200000001,
          49.502412599999985
        ]
      }
    },
    {
      "type": "Feature",
      "properties": {
        "area_id": 5,
        "osmid": "470555985"
      },
      "geometry": {
        "type": "Point",
        "coordinates": [
          5.981416500000002,
          49.457258899999985
        ]
      }
    },
    {
      "type": "Feature",
      "properties": {
        "area_id": 54,
        "osmid": "3509851478"
      },
      "geometry": {
        "type": "Point",
        "coordinates": [
          5.9895551000000005,
          49.487874099999985
        ]
      }
    },
    {
      "type": "Feature",
      "properties": {
        "area_id": 203,
        "osmid": "9482024281"
      },
      "geometry": {
        "type": "Point",
        "coordinates": [
          5.979989400000001,
          49.490409499999984
        ]
      }
    },
    {
      "type": "Feature",
      "properties": {
        "area_id": 43,
        "osmid": "288828764"
      },
      "geometry": {
        "type": "Point",
        "coordinates": [
          6.0071511,
          49.500759299999984
        ]
      }
    },
    {
      "type": "Feature",
      "properties": {
        "area_id": 2,
        "osmid": "1914451295"
      },
      "geometry": {
        "type": "Point",
        "coordinates": [
          6.013332900000001,
          49.49543759999999
        ]
      }
    },
    {
      "type": "Feature",
      "properties": {
        "area_id": 159,
        "osmid": "2688877937"
      },
      "geometry": {
        "type": "Point",
        "coordinates": [
          5.996016700000001,
          49.4986119
        ]
      }
    },
    {
      "type": "Feature",
      "properties": {
        "area_id": 7,
        "osmid": "1606643076"
      },
      "geometry": {
        "type": "Point",
        "coordinates": [
          5.988240300000001,
          49.488067699999995
        ]
      }
    },
    {
      "type": "Feature",
      "properties": {
        "area_id": 169,
        "osmid": "8645047689"
      },
      "geometry": {
        "type": "Point",
        "coordinates": [
          5.9825629,
          49.457320399999986
        ]
      }
    },
    {
      "type": "Feature",
      "properties": {
        "area_id": 92,
        "osmid": "813493644"
      },
      "geometry": {
        "type": "Point",
        "coordinates": [
          6.0017627,
          49.4516667
        ]
      }
    },
    {
      "type": "Feature",
      "properties": {
        "area_id": 162,
        "osmid": "3304361357"
      },
      "geometry": {
        "type": "Point",
        "coordinates": [
          5.980064800000001,
          49.4878227
        ]
      }
    },
    {
      "type": "Feature",
      "properties": {
        "area_id": 206,
        "osmid": "6514795925"
      },
      "geometry": {
        "type": "Point",
        "coordinates": [
          5.981248300000002,
          49.4850919
        ]
      }
    },
    {
      "type": "Feature",
      "properties": {
        "area_id": 39,
        "osmid": "1915106736"
      },
      "geometry": {
        "type": "Point",
        "coordinates": [
          6.0074698,
          49.490011599999995
        ]
      }
    },
    {
      "type": "Feature",
      "properties": {
        "area_id": 54,
        "osmid": "2756079026"
      },
      "geometry": {
        "type": "Point",
        "coordinates": [
          5.992900500000002,
          49.48865289999999
        ]
      }
    },
    {
      "type": "Feature",
      "properties": {
        "area_id": 156,
        "osmid": "2685492667"
      },
      "geometry": {
        "type": "Point",
        "coordinates": [
          5.991755500000001,
          49.49332219999999
        ]
      }
    },
    {
      "type": "Feature",
      "properties": {
        "area_id": 96,
        "osmid": "897101244"
      },
      "geometry": {
        "type": "Point",
        "coordinates": [
          6.0247292,
          49.47926969999998
        ]
      }
    },
    {
      "type": "Feature",
      "properties": {
        "area_id": 130,
        "osmid": "1699495356"
      },
      "geometry": {
        "type": "Point",
        "coordinates": [
          6.020121400000001,
          49.474699699999995
        ]
      }
    },
    {
      "type": "Feature",
      "properties": {
        "area_id": 0,
        "osmid": "1828494786"
      },
      "geometry": {
        "type": "Point",
        "coordinates": [
          6.003640100000002,
          49.496520799999985
        ]
      }
    },
    {
      "type": "Feature",
      "properties": {
        "area_id": 157,
        "osmid": "4287520195"
      },
      "geometry": {
        "type": "Point",
        "coordinates": [
          5.995838700000001,
          49.485258099999996
        ]
      }
    },
    {
      "type": "Feature",
      "properties": {
        "area_id": 86,
        "osmid": "2817619402"
      },
      "geometry": {
        "type": "Point",
        "coordinates": [
          5.9693606,
          49.47633890000001
        ]
      }
    },
    {
      "type": "Feature",
      "properties": {
        "area_id": 10,
        "osmid": "248794571"
      },
      "geometry": {
        "type": "Point",
        "coordinates": [
          5.987517300000001,
          49.49707189999999
        ]
      }
    },
    {
      "type": "Feature",
      "properties": {
        "area_id": 0,
        "osmid": "1828494798"
      },
      "geometry": {
        "type": "Point",
        "coordinates": [
          6.004525900000002,
          49.49887429999999
        ]
      }
    },
    {
      "type": "Feature",
      "properties": {
        "area_id": 124,
        "osmid": "7233983960"
      },
      "geometry": {
        "type": "Point",
        "coordinates": [
          5.9821676,
          49.4736685
        ]
      }
    },
    {
      "type": "Feature",
      "properties": {
        "area_id": 87,
        "osmid": "2817619423"
      },
      "geometry": {
        "type": "Point",
        "coordinates": [
          5.9691973,
          49.466846199999985
        ]
      }
    },
    {
      "type": "Feature",
      "properties": {
        "area_id": 197,
        "osmid": "4855729651"
      },
      "geometry": {
        "type": "Point",
        "coordinates": [
          6.0166184000000005,
          49.457852399999986
        ]
      }
    },
    {
      "type": "Feature",
      "properties": {
        "area_id": 4,
        "osmid": "247371258"
      },
      "geometry": {
        "type": "Point",
        "coordinates": [
          6.0322042,
          49.500746899999996
        ]
      }
    },
    {
      "type": "Feature",
      "properties": {
        "area_id": 63,
        "osmid": "2002820607"
      },
      "geometry": {
        "type": "Point",
        "coordinates": [
          5.9661287,
          49.47555259999999
        ]
      }
    },
    {
      "type": "Feature",
      "properties": {
        "area_id": 75,
        "osmid": "4438410755"
      },
      "geometry": {
        "type": "Point",
        "coordinates": [
          6.0020753,
          49.49453189999999
        ]
      }
    },
    {
      "type": "Feature",
      "properties": {
        "area_id": 39,
        "osmid": "4438410757"
      },
      "geometry": {
        "type": "Point",
        "coordinates": [
          6.007385000000002,
          49.48942139999998
        ]
      }
    },
    {
      "type": "Feature",
      "properties": {
        "area_id": 81,
        "osmid": "1447923210"
      },
      "geometry": {
        "type": "Point",
        "coordinates": [
          6.028385000000001,
          49.47831449999999
        ]
      }
    },
    {
      "type": "Feature",
      "properties": {
        "area_id": 111,
        "osmid": "1896420884"
      },
      "geometry": {
        "type": "Point",
        "coordinates": [
          6.018103000000001,
          49.474680199999995
        ]
      }
    },
    {
      "type": "Feature",
      "properties": {
        "area_id": 111,
        "osmid": "1896420885"
      },
      "geometry": {
        "type": "Point",
        "coordinates": [
          6.0178721,
          49.4747511
        ]
      }
    },
    {
      "type": "Feature",
      "properties": {
        "area_id": 63,
        "osmid": "8705195542"
      },
      "geometry": {
        "type": "Point",
        "coordinates": [
          5.9746306,
          49.473753099999996
        ]
      }
    },
    {
      "type": "Feature",
      "properties": {
        "area_id": 30,
        "osmid": "1447923228"
      },
      "geometry": {
        "type": "Point",
        "coordinates": [
          6.0307847,
          49.478225099999996
        ]
      }
    },
    {
      "type": "Feature",
      "properties": {
        "area_id": 81,
        "osmid": "1447923239"
      },
      "geometry": {
        "type": "Point",
        "coordinates": [
          6.029435499999999,
          49.4786386
        ]
      }
    },
    {
      "type": "Feature",
      "properties": {
        "area_id": 132,
        "osmid": "1814584873"
      },
      "geometry": {
        "type": "Point",
        "coordinates": [
          6.025340500000001,
          49.467907499999995
        ]
      }
    },
    {
      "type": "Feature",
      "properties": {
        "area_id": 157,
        "osmid": "2845582914"
      },
      "geometry": {
        "type": "Point",
        "coordinates": [
          5.995728799999998,
          49.48413059999999
        ]
      }
    },
    {
      "type": "Feature",
      "properties": {
        "area_id": 176,
        "osmid": "3492736579"
      },
      "geometry": {
        "type": "Point",
        "coordinates": [
          5.9928368,
          49.47110639999999
        ]
      }
    },
    {
      "type": "Feature",
      "properties": {
        "area_id": 25,
        "osmid": "273079877"
      },
      "geometry": {
        "type": "Point",
        "coordinates": [
          6.016721900000001,
          49.49589969999999
        ]
      }
    },
    {
      "type": "Feature",
      "properties": {
        "area_id": 111,
        "osmid": "1896420934"
      },
      "geometry": {
        "type": "Point",
        "coordinates": [
          6.0210805,
          49.476483599999995
        ]
      }
    },
    {
      "type": "Feature",
      "properties": {
        "area_id": 106,
        "osmid": "1385875022"
      },
      "geometry": {
        "type": "Point",
        "coordinates": [
          6.006163400000002,
          49.50377859999998
        ]
      }
    },
    {
      "type": "Feature",
      "properties": {
        "area_id": 110,
        "osmid": "1428588115"
      },
      "geometry": {
        "type": "Point",
        "coordinates": [
          6.0239104,
          49.465545199999994
        ]
      }
    },
    {
      "type": "Feature",
      "properties": {
        "area_id": 39,
        "osmid": "6564460128"
      },
      "geometry": {
        "type": "Point",
        "coordinates": [
          6.0075608,
          49.48932459999999
        ]
      }
    },
    {
      "type": "Feature",
      "properties": {
        "area_id": 39,
        "osmid": "5494982243"
      },
      "geometry": {
        "type": "Point",
        "coordinates": [
          6.007873300000001,
          49.48992269999999
        ]
      }
    },
    {
      "type": "Feature",
      "properties": {
        "area_id": 93,
        "osmid": "813500003"
      },
      "geometry": {
        "type": "Point",
        "coordinates": [
          5.997408300000002,
          49.449105199999984
        ]
      }
    },
    {
      "type": "Feature",
      "properties": {
        "area_id": 39,
        "osmid": "5494982244"
      },
      "geometry": {
        "type": "Point",
        "coordinates": [
          6.0078404,
          49.4896535
        ]
      }
    },
    {
      "type": "Feature",
      "properties": {
        "area_id": 0,
        "osmid": "2736301679"
      },
      "geometry": {
        "type": "Point",
        "coordinates": [
          6.004236200000001,
          49.4966101
        ]
      }
    },
    {
      "type": "Feature",
      "properties": {
        "area_id": 100,
        "osmid": "1304630895"
      },
      "geometry": {
        "type": "Point",
        "coordinates": [
          5.981826500000002,
          49.44696109999999
        ]
      }
    },
    {
      "type": "Feature",
      "properties": {
        "area_id": 53,
        "osmid": "2682545777"
      },
      "geometry": {
        "type": "Point",
        "coordinates": [
          5.992584700000001,
          49.49209439999999
        ]
      }
    },
    {
      "type": "Feature",
      "properties": {
        "area_id": 81,
        "osmid": "3688185462"
      },
      "geometry": {
        "type": "Point",
        "coordinates": [
          6.028264600000001,
          49.47835609999999
        ]
      }
    },
    {
      "type": "Feature",
      "properties": {
        "area_id": 124,
        "osmid": "1632925304"
      },
      "geometry": {
        "type": "Point",
        "coordinates": [
          5.981220800000001,
          49.474881599999996
        ]
      }
    },
    {
      "type": "Feature",
      "properties": {
        "area_id": 121,
        "osmid": "1628706425"
      },
      "geometry": {
        "type": "Point",
        "coordinates": [
          5.982464700000002,
          49.48979629999998
        ]
      }
    },
    {
      "type": "Feature",
      "properties": {
        "area_id": 139,
        "osmid": "1917488778"
      },
      "geometry": {
        "type": "Point",
        "coordinates": [
          5.999234000000001,
          49.487145899999994
        ]
      }
    },
    {
      "type": "Feature",
      "properties": {
        "area_id": 139,
        "osmid": "1917488779"
      },
      "geometry": {
        "type": "Point",
        "coordinates": [
          5.9990726,
          49.48709569999999
        ]
      }
    },
    {
      "type": "Feature",
      "properties": {
        "area_id": 64,
        "osmid": "7195170450"
      },
      "geometry": {
        "type": "Point",
        "coordinates": [
          6.0096221,
          49.470581299999985
        ]
      }
    },
    {
      "type": "Feature",
      "properties": {
        "area_id": 0,
        "osmid": "1385889427"
      },
      "geometry": {
        "type": "Point",
        "coordinates": [
          6.003273900000001,
          49.49817359999999
        ]
      }
    },
    {
      "type": "Feature",
      "properties": {
        "area_id": 56,
        "osmid": "6298078877"
      },
      "geometry": {
        "type": "Point",
        "coordinates": [
          5.994411200000001,
          49.47660439999999
        ]
      }
    },
    {
      "type": "Feature",
      "properties": {
        "area_id": 0,
        "osmid": "3801976486"
      },
      "geometry": {
        "type": "Point",
        "coordinates": [
          6.0000211,
          49.49952619999999
        ]
      }
    },
    {
      "type": "Feature",
      "properties": {
        "area_id": 157,
        "osmid": "2682740397"
      },
      "geometry": {
        "type": "Point",
        "coordinates": [
          5.995902700000001,
          49.48558799999998
        ]
      }
    },
    {
      "type": "Feature",
      "properties": {
        "area_id": 121,
        "osmid": "5377445558"
      },
      "geometry": {
        "type": "Point",
        "coordinates": [
          5.983734699999999,
          49.488513999999995
        ]
      }
    },
    {
      "type": "Feature",
      "properties": {
        "area_id": 143,
        "osmid": "4831002295"
      },
      "geometry": {
        "type": "Point",
        "coordinates": [
          5.976304600000001,
          49.48318199999999
        ]
      }
    },
    {
      "type": "Feature",
      "properties": {
        "area_id": 173,
        "osmid": "4831002301"
      },
      "geometry": {
        "type": "Point",
        "coordinates": [
          5.976196400000001,
          49.483734
        ]
      }
    },
    {
      "type": "Feature",
      "properties": {
        "area_id": 72,
        "osmid": "2682740415"
      },
      "geometry": {
        "type": "Point",
        "coordinates": [
          5.995828800000002,
          49.484963399999984
        ]
      }
    },
    {
      "type": "Feature",
      "properties": {
        "area_id": 200,
        "osmid": "5377445571"
      },
      "geometry": {
        "type": "Point",
        "coordinates": [
          5.982099900000001,
          49.489684399999994
        ]
      }
    },
    {
      "type": "Feature",
      "properties": {
        "area_id": 132,
        "osmid": "3644427972"
      },
      "geometry": {
        "type": "Point",
        "coordinates": [
          6.027781400000001,
          49.46855509999999
        ]
      }
    },
    {
      "type": "Feature",
      "properties": {
        "area_id": 111,
        "osmid": "1428817608"
      },
      "geometry": {
        "type": "Point",
        "coordinates": [
          6.017818500000001,
          49.4746062
        ]
      }
    },
    {
      "type": "Feature",
      "properties": {
        "area_id": 64,
        "osmid": "4838581966"
      },
      "geometry": {
        "type": "Point",
        "coordinates": [
          6.008344700000002,
          49.47220449999998
        ]
      }
    },
    {
      "type": "Feature",
      "properties": {
        "area_id": 165,
        "osmid": "4838581967"
      },
      "geometry": {
        "type": "Point",
        "coordinates": [
          6.0086048,
          49.47010499999999
        ]
      }
    },
    {
      "type": "Feature",
      "properties": {
        "area_id": 132,
        "osmid": "3644427989"
      },
      "geometry": {
        "type": "Point",
        "coordinates": [
          6.027463400000002,
          49.468825599999995
        ]
      }
    },
    {
      "type": "Feature",
      "properties": {
        "area_id": 194,
        "osmid": "4838581975"
      },
      "geometry": {
        "type": "Point",
        "coordinates": [
          6.008343300000002,
          49.46706469999998
        ]
      }
    },
    {
      "type": "Feature",
      "properties": {
        "area_id": 0,
        "osmid": "6790708952"
      },
      "geometry": {
        "type": "Point",
        "coordinates": [
          6.0033068,
          49.50060139999999
        ]
      }
    },
    {
      "type": "Feature",
      "properties": {
        "area_id": 2,
        "osmid": "2687690462"
      },
      "geometry": {
        "type": "Point",
        "coordinates": [
          6.014391000000001,
          49.496122699999994
        ]
      }
    },
    {
      "type": "Feature",
      "properties": {
        "area_id": 35,
        "osmid": "288823006"
      },
      "geometry": {
        "type": "Point",
        "coordinates": [
          5.9929481,
          49.498085599999996
        ]
      }
    },
    {
      "type": "Feature",
      "properties": {
        "area_id": 1,
        "osmid": "2239968993"
      },
      "geometry": {
        "type": "Point",
        "coordinates": [
          6.023286600000001,
          49.49576599999999
        ]
      }
    },
    {
      "type": "Feature",
      "properties": {
        "area_id": 200,
        "osmid": "5377445603"
      },
      "geometry": {
        "type": "Point",
        "coordinates": [
          5.979068400000002,
          49.48827829999998
        ]
      }
    },
    {
      "type": "Feature",
      "properties": {
        "area_id": 116,
        "osmid": "1430726385"
      },
      "geometry": {
        "type": "Point",
        "coordinates": [
          6.026141100000001,
          49.4796615
        ]
      }
    },
    {
      "type": "Feature",
      "properties": {
        "area_id": 86,
        "osmid": "726161141"
      },
      "geometry": {
        "type": "Point",
        "coordinates": [
          5.970481900000001,
          49.47048419999999
        ]
      }
    },
    {
      "type": "Feature",
      "properties": {
        "area_id": 3,
        "osmid": "5117521693"
      },
      "geometry": {
        "type": "Point",
        "coordinates": [
          6.012622600000002,
          49.498645299999986
        ]
      }
    },
    {
      "type": "Feature",
      "properties": {
        "area_id": 206,
        "osmid": "6743893794"
      },
      "geometry": {
        "type": "Point",
        "coordinates": [
          5.981713300000002,
          49.485900499999985
        ]
      }
    },
    {
      "type": "Feature",
      "properties": {
        "area_id": 103,
        "osmid": "1843187490"
      },
      "geometry": {
        "type": "Point",
        "coordinates": [
          6.011246700000001,
          49.45405309999999
        ]
      }
    },
    {
      "type": "Feature",
      "properties": {
        "area_id": 63,
        "osmid": "3352973111"
      },
      "geometry": {
        "type": "Point",
        "coordinates": [
          5.9679982,
          49.476973799999996
        ]
      }
    },
    {
      "type": "Feature",
      "properties": {
        "area_id": 159,
        "osmid": "2139965242"
      },
      "geometry": {
        "type": "Point",
        "coordinates": [
          5.9949973000000005,
          49.49729819999999
        ]
      }
    },
    {
      "type": "Feature",
      "properties": {
        "area_id": 25,
        "osmid": "493619006"
      },
      "geometry": {
        "type": "Point",
        "coordinates": [
          6.0161412,
          49.49637709999999
        ]
      }
    },
    {
      "type": "Feature",
      "properties": {
        "area_id": 63,
        "osmid": "3352973119"
      },
      "geometry": {
        "type": "Point",
        "coordinates": [
          5.9671851,
          49.47633199999999
        ]
      }
    },
    {
      "type": "Feature",
      "properties": {
        "area_id": 177,
        "osmid": "5414078273"
      },
      "geometry": {
        "type": "Point",
        "coordinates": [
          5.9797993,
          49.47835009999998
        ]
      }
    },
    {
      "type": "Feature",
      "properties": {
        "area_id": 112,
        "osmid": "7196174147"
      },
      "geometry": {
        "type": "Point",
        "coordinates": [
          6.014339400000001,
          49.474237599999995
        ]
      }
    },
    {
      "type": "Feature",
      "properties": {
        "area_id": 63,
        "osmid": "3352973125"
      },
      "geometry": {
        "type": "Point",
        "coordinates": [
          5.967373200000001,
          49.47619389999998
        ]
      }
    },
    {
      "type": "Feature",
      "properties": {
        "area_id": 147,
        "osmid": "2139965257"
      },
      "geometry": {
        "type": "Point",
        "coordinates": [
          5.994478100000002,
          49.49712929999998
        ]
      }
    },
    {
      "type": "Feature",
      "properties": {
        "area_id": 35,
        "osmid": "2139965262"
      },
      "geometry": {
        "type": "Point",
        "coordinates": [
          5.996181100000001,
          49.49569349999998
        ]
      }
    },
    {
      "type": "Feature",
      "properties": {
        "area_id": 81,
        "osmid": "6796109648"
      },
      "geometry": {
        "type": "Point",
        "coordinates": [
          6.029341700000001,
          49.478900799999984
        ]
      }
    },
    {
      "type": "Feature",
      "properties": {
        "area_id": 63,
        "osmid": "2002796368"
      },
      "geometry": {
        "type": "Point",
        "coordinates": [
          5.970765300000001,
          49.4801949
        ]
      }
    },
    {
      "type": "Feature",
      "properties": {
        "area_id": 63,
        "osmid": "2002796372"
      },
      "geometry": {
        "type": "Point",
        "coordinates": [
          5.971725,
          49.480303299999996
        ]
      }
    },
    {
      "type": "Feature",
      "properties": {
        "area_id": 112,
        "osmid": "7196174172"
      },
      "geometry": {
        "type": "Point",
        "coordinates": [
          6.016232400000001,
          49.469048799999996
        ]
      }
    },
    {
      "type": "Feature",
      "properties": {
        "area_id": 151,
        "osmid": "2448072549"
      },
      "geometry": {
        "type": "Point",
        "coordinates": [
          6.000088,
          49.49377760000001
        ]
      }
    },
    {
      "type": "Feature",
      "properties": {
        "area_id": 159,
        "osmid": "2687797106"
      },
      "geometry": {
        "type": "Point",
        "coordinates": [
          5.994543400000003,
          49.497252899999985
        ]
      }
    },
    {
      "type": "Feature",
      "properties": {
        "area_id": 74,
        "osmid": "493606783"
      },
      "geometry": {
        "type": "Point",
        "coordinates": [
          5.9899917,
          49.48657339999998
        ]
      }
    },
    {
      "type": "Feature",
      "properties": {
        "area_id": 0,
        "osmid": "1917523845"
      },
      "geometry": {
        "type": "Point",
        "coordinates": [
          5.997115600000001,
          49.49785649999998
        ]
      }
    },
    {
      "type": "Feature",
      "properties": {
        "area_id": 159,
        "osmid": "2687797126"
      },
      "geometry": {
        "type": "Point",
        "coordinates": [
          5.996576600000002,
          49.49820969999999
        ]
      }
    },
    {
      "type": "Feature",
      "properties": {
        "area_id": 159,
        "osmid": "2687797132"
      },
      "geometry": {
        "type": "Point",
        "coordinates": [
          5.9973842,
          49.496757899999984
        ]
      }
    },
    {
      "type": "Feature",
      "properties": {
        "area_id": 31,
        "osmid": "776419212"
      },
      "geometry": {
        "type": "Point",
        "coordinates": [
          6.051479,
          49.5004112
        ]
      }
    },
    {
      "type": "Feature",
      "properties": {
        "area_id": 116,
        "osmid": "416333712"
      },
      "geometry": {
        "type": "Point",
        "coordinates": [
          6.022390100000001,
          49.4782748
        ]
      }
    },
    {
      "type": "Feature",
      "properties": {
        "area_id": 91,
        "osmid": "1593329556"
      },
      "geometry": {
        "type": "Point",
        "coordinates": [
          6.0102899,
          49.458751399999976
        ]
      }
    },
    {
      "type": "Feature",
      "properties": {
        "area_id": 2,
        "osmid": "7678250905"
      },
      "geometry": {
        "type": "Point",
        "coordinates": [
          6.012512100000001,
          49.49629039999999
        ]
      }
    },
    {
      "type": "Feature",
      "properties": {
        "area_id": 52,
        "osmid": "2448064412"
      },
      "geometry": {
        "type": "Point",
        "coordinates": [
          5.990829199999999,
          49.49768229999999
        ]
      }
    },
    {
      "type": "Feature",
      "properties": {
        "area_id": 8,
        "osmid": "2415863721"
      },
      "geometry": {
        "type": "Point",
        "coordinates": [
          5.982884500000002,
          49.484466299999994
        ]
      }
    },
    {
      "type": "Feature",
      "properties": {
        "area_id": 0,
        "osmid": "273080248"
      },
      "geometry": {
        "type": "Point",
        "coordinates": [
          6.004043100000001,
          49.5012716
        ]
      }
    },
    {
      "type": "Feature",
      "properties": {
        "area_id": 26,
        "osmid": "273080257"
      },
      "geometry": {
        "type": "Point",
        "coordinates": [
          6.004246200000001,
          49.49953689999999
        ]
      }
    },
    {
      "type": "Feature",
      "properties": {
        "area_id": 91,
        "osmid": "1593329628"
      },
      "geometry": {
        "type": "Point",
        "coordinates": [
          6.010387700000001,
          49.458751599999985
        ]
      }
    },
    {
      "type": "Feature",
      "properties": {
        "area_id": 81,
        "osmid": "7684569053"
      },
      "geometry": {
        "type": "Point",
        "coordinates": [
          6.029285300000001,
          49.47882459999999
        ]
      }
    },
    {
      "type": "Feature",
      "properties": {
        "area_id": 30,
        "osmid": "897109987"
      },
      "geometry": {
        "type": "Point",
        "coordinates": [
          6.0204931,
          49.473608399999996
        ]
      }
    },
    {
      "type": "Feature",
      "properties": {
        "area_id": 182,
        "osmid": "9500264439"
      },
      "geometry": {
        "type": "Point",
        "coordinates": [
          5.959726800000001,
          49.50599709999998
        ]
      }
    },
    {
      "type": "Feature",
      "properties": {
        "area_id": 92,
        "osmid": "6491301884"
      },
      "geometry": {
        "type": "Point",
        "coordinates": [
          6.000298700000001,
          49.44710489999999
        ]
      }
    },
    {
      "type": "Feature",
      "properties": {
        "area_id": 194,
        "osmid": "6319054845"
      },
      "geometry": {
        "type": "Point",
        "coordinates": [
          6.008511600000001,
          49.4673488
        ]
      }
    },
    {
      "type": "Feature",
      "properties": {
        "area_id": 194,
        "osmid": "6319054847"
      },
      "geometry": {
        "type": "Point",
        "coordinates": [
          6.009823500000001,
          49.466201399999996
        ]
      }
    }
  ]
}